Settlement Number,Booth Number,Settlement Name,Address Name,Search,Latitude,Longitude
3000,2.0,ירושלים,"שמואל הנביא,83א","שמואל הנביא,83א, ירושלים",31.79482022561532,35.220462028851465
3000,3.0,ירושלים,"מגן האלף,1","מגן האלף,1, ירושלים",31.794867860480267,35.22301557812251
3000,4.0,ירושלים,"פישל אהרן,29","פישל אהרן,29, ירושלים",31.794522258688854,35.220329441255096
3000,5.1,ירושלים,"שבטי ישראל,27","שבטי ישראל,27, ירושלים",31.783699994806057,35.224520031001674
3000,5.2,ירושלים,"שבטי ישראל,27","שבטי ישראל,27, ירושלים",31.783699994806057,35.224520031001674
3000,6.0,ירושלים,"מגן האלף,1","מגן האלף,1, ירושלים",31.794867860480267,35.22301557812251
3000,7.0,ירושלים,"נטר,40","נטר,40, ירושלים",31.795050013714956,35.22476000488956
3000,8.0,ירושלים,"מגן האלף,3","מגן האלף,3, ירושלים",31.794867860480267,35.22301557812251
3000,9.0,ירושלים,"פישל אהרן,29","פישל אהרן,29, ירושלים",31.794522258688854,35.220329441255096
3000,10.0,ירושלים,"מגן האלף,3","מגן האלף,3, ירושלים",31.794867860480267,35.22301557812251
3000,11.0,ירושלים,"שמעון הצדיק,23","שמעון הצדיק,23, ירושלים",31.793629993588496,35.22463997603609
3000,12.0,ירושלים,"שמעון הצדיק,23","שמעון הצדיק,23, ירושלים",31.793629993588496,35.22463997603609
3000,13.0,ירושלים,"שמעון הצדיק,23","שמעון הצדיק,23, ירושלים",31.793629993588496,35.22463997603609
3000,14.1,ירושלים,"שמעון הצדיק,23","שמעון הצדיק,23, ירושלים",31.793629993588496,35.22463997603609
3000,14.2,ירושלים,"שמעון הצדיק,23","שמעון הצדיק,23, ירושלים",31.793629993588496,35.22463997603609
3000,15.1,ירושלים,"דבורה הנביאה,2","דבורה הנביאה,2, ירושלים",31.784350011397322,35.22387998887518
3000,15.2,ירושלים,"דבורה הנביאה,2","דבורה הנביאה,2, ירושלים",31.784350011397322,35.22387998887518
3000,16.1,ירושלים,"הנביאים,42","הנביאים,42, ירושלים",31.784350011397322,35.222520025084975
3000,16.2,ירושלים,"הנביאים,42","הנביאים,42, ירושלים",31.784350011397322,35.222520025084975
3000,17.1,ירושלים,"הנביאים,42","הנביאים,42, ירושלים",31.784350011397322,35.222520025084975
3000,17.2,ירושלים,"הנביאים,42","הנביאים,42, ירושלים",31.784350011397322,35.222520025084975
3000,18.0,ירושלים,"שבטי ישראל,27","שבטי ישראל,27, ירושלים",31.783699994806057,35.224520031001674
3000,19.0,ירושלים,"מגן האלף,3","מגן האלף,3, ירושלים",31.794867860480267,35.22301557812251
3000,20.0,ירושלים,"אביגדורי,3","אביגדורי,3, ירושלים",31.785589988243572,35.219379996517375
3000,21.0,ירושלים,"מגן האלף,3","מגן האלף,3, ירושלים",31.794867860480267,35.22301557812251
3000,22.0,ירושלים,"שמואל הנביא,83א","שמואל הנביא,83א, ירושלים",31.79482022561532,35.220462028851465
3000,23.0,ירושלים,"שמואל הנביא,83א","שמואל הנביא,83א, ירושלים",31.79482022561532,35.220462028851465
3000,24.0,ירושלים,"מגן האלף,3","מגן האלף,3, ירושלים",31.794867860480267,35.22301557812251
3000,25.0,ירושלים,"מגן האלף,1","מגן האלף,1, ירושלים",31.794867860480267,35.22301557812251
3000,26.0,ירושלים,"נטר,40","נטר,40, ירושלים",31.795050013714956,35.22476000488956
3000,27.0,ירושלים,"אהלי יוסף,15","אהלי יוסף,15, ירושלים",31.795981108610476,35.217141651694014
3000,28.1,ירושלים,"אהלי יוסף,15","אהלי יוסף,15, ירושלים",31.795981108610476,35.217141651694014
3000,28.2,ירושלים,"אהלי יוסף,15","אהלי יוסף,15, ירושלים",31.795981108610476,35.217141651694014
3000,29.0,ירושלים,"מגן האלף,1","מגן האלף,1, ירושלים",31.794867860480267,35.22301557812251
3000,30.0,ירושלים,"ירמיהו,5","ירמיהו,5, ירושלים",31.791969999574107,35.21205002219045
3000,32.0,ירושלים,"שמעון הצדיק,23","שמעון הצדיק,23, ירושלים",31.793629993588496,35.22463997603609
3000,41.1,ירושלים,"אביגדורי,3","אביגדורי,3, ירושלים",31.785589988243572,35.219379996517375
3000,41.2,ירושלים,"אביגדורי,3","אביגדורי,3, ירושלים",31.785589988243572,35.219379996517375
3000,42.0,ירושלים,"אביגדורי,3","אביגדורי,3, ירושלים",31.785589988243572,35.219379996517375
3000,43.1,ירושלים,"שמעון הצדיק,23","שמעון הצדיק,23, ירושלים",31.793629993588496,35.22463997603609
3000,43.2,ירושלים,"שמעון הצדיק,23","שמעון הצדיק,23, ירושלים",31.793629993588496,35.22463997603609
3000,44.0,ירושלים,"מלכי ישראל,57","מלכי ישראל,57, ירושלים",31.7896746405662,35.21387493474319
3000,45.0,ירושלים,"מלכי ישראל,57","מלכי ישראל,57, ירושלים",31.7896746405662,35.21387493474319
3000,46.0,ירושלים,"פישל אהרן,29","פישל אהרן,29, ירושלים",31.794522258688854,35.220329441255096
3000,47.0,ירושלים,"פישל אהרן,29","פישל אהרן,29, ירושלים",31.794522258688854,35.220329441255096
3000,48.0,ירושלים,"אהלי יוסף,15","אהלי יוסף,15, ירושלים",31.795981108610476,35.217141651694014
3000,49.0,ירושלים,"ילין דוד,41","ילין דוד,41, ירושלים",31.786570000362843,35.21399998814519
3000,50.0,ירושלים,"ירמיהו,5","ירמיהו,5, ירושלים",31.791969999574107,35.21205002219045
3000,51.0,ירושלים,"ילין דוד,41","ילין דוד,41, ירושלים",31.786570000362843,35.21399998814519
3000,52.0,ירושלים,"ירמיהו,5","ירמיהו,5, ירושלים",31.791969999574107,35.21205002219045
3000,53.1,ירושלים,"מלכי ישראל,57","מלכי ישראל,57, ירושלים",31.7896746405662,35.21387493474319
3000,53.2,ירושלים,"מלכי ישראל,57","מלכי ישראל,57, ירושלים",31.7896746405662,35.21387493474319
3000,54.0,ירושלים,"מלכי ישראל,57","מלכי ישראל,57, ירושלים",31.7896746405662,35.21387493474319
3000,55.0,ירושלים,"מלכי ישראל,57","מלכי ישראל,57, ירושלים",31.7896746405662,35.21387493474319
3000,56.1,ירושלים,"פרי חדש,1","פרי חדש,1, ירושלים",31.787108874254006,35.21716618366634
3000,56.2,ירושלים,"פרי חדש,1","פרי חדש,1, ירושלים",31.787108874254006,35.21716618366634
3000,57.0,ירושלים,"מלכי ישראל,57","מלכי ישראל,57, ירושלים",31.7896746405662,35.21387493474319
3000,58.0,ירושלים,"פרי חדש,1","פרי חדש,1, ירושלים",31.787108874254006,35.21716618366634
3000,59.0,ירושלים,"עזרת תורה,45","עזרת תורה,45, ירושלים",31.79907504459207,35.21521402906298
3000,60.0,ירושלים,"פרי חדש,1","פרי חדש,1, ירושלים",31.787108874254006,35.21716618366634
3000,61.0,ירושלים,"פרי חדש,1","פרי חדש,1, ירושלים",31.787108874254006,35.21716618366634
3000,62.0,ירושלים,"עזרת תורה,45","עזרת תורה,45, ירושלים",31.79907504459207,35.21521402906298
3000,63.0,ירושלים,"עזרת תורה,45","עזרת תורה,45, ירושלים",31.79907504459207,35.21521402906298
3000,64.0,ירושלים,"עזרת תורה,45","עזרת תורה,45, ירושלים",31.79907504459207,35.21521402906298
3000,65.0,ירושלים,"שפע חיים,1","שפע חיים,1, ירושלים",31.78425001529243,35.2110499773226
3000,66.0,ירושלים,"סורוצקין,38","סורוצקין,38, ירושלים",31.79744134984803,35.20574626852376
3000,67.0,ירושלים,"שפע חיים,1","שפע חיים,1, ירושלים",31.78425001529243,35.2110499773226
3000,81.0,ירושלים,"אביגדורי,3","אביגדורי,3, ירושלים",31.785589988243572,35.219379996517375
3000,82.0,ירושלים,"שבטי ישראל,22","שבטי ישראל,22, ירושלים",31.782339989106333,35.22462002710654
3000,83.0,ירושלים,"רבי עקיבא,11","רבי עקיבא,11, ירושלים",31.77962692062221,35.21819785575132
3000,84.0,ירושלים,"הלל,17","הלל,17, ירושלים",31.78049999372125,35.217379990600705
3000,85.0,ירושלים,"הקרן הקיימת,14","הקרן הקיימת,14, ירושלים",31.776922786137796,35.21470207206849
3000,86.0,ירושלים,"רבי עקיבא,7","רבי עקיבא,7, ירושלים",31.77962692062221,35.21819785575132
3000,87.0,ירושלים,"הקרן הקיימת,14","הקרן הקיימת,14, ירושלים",31.776922786137796,35.21470207206849
3000,88.0,ירושלים,"רבי עקיבא,7","רבי עקיבא,7, ירושלים",31.77962692062221,35.21819785575132
3000,89.0,ירושלים,"רבי עקיבא,7","רבי עקיבא,7, ירושלים",31.77962692062221,35.21819785575132
3000,90.0,ירושלים,"רבי עקיבא,7","רבי עקיבא,7, ירושלים",31.77962692062221,35.21819785575132
3000,93.0,ירושלים,"רבי עקיבא,11","רבי עקיבא,11, ירושלים",31.77962692062221,35.21819785575132
3000,94.0,ירושלים,"נרקיס,11","נרקיס,11, ירושלים",31.778870006920243,35.212759969389424
3000,116.0,ירושלים,"שבטי ישראל,22","שבטי ישראל,22, ירושלים",31.782339989106333,35.22462002710654
3000,117.0,ירושלים,"שבטי ישראל,22","שבטי ישראל,22, ירושלים",31.782339989106333,35.22462002710654
3000,118.0,ירושלים,"שבטי ישראל,22","שבטי ישראל,22, ירושלים",31.782339989106333,35.22462002710654
3000,119.0,ירושלים,"שבטי ישראל,22","שבטי ישראל,22, ירושלים",31.782339989106333,35.22462002710654
3000,120.0,ירושלים,"שמעון הצדיק,23","שמעון הצדיק,23, ירושלים",31.793629993588496,35.22463997603609
3000,131.0,ירושלים,"יצחק אלחנן,4","יצחק אלחנן,4, ירושלים",31.770569994938825,35.220859989161085
3000,132.0,ירושלים,"יצחק אלחנן,4","יצחק אלחנן,4, ירושלים",31.770569994938825,35.220859989161085
3000,133.0,ירושלים,"יצחק אלחנן,4","יצחק אלחנן,4, ירושלים",31.770569994938825,35.220859989161085
3000,134.0,ירושלים,"יצחק אלחנן,4","יצחק אלחנן,4, ירושלים",31.770569994938825,35.220859989161085
3000,135.0,ירושלים,"כט' בנובמבר,13","כט' בנובמבר,13, ירושלים",31.766260020326015,35.21625002623361
3000,137.0,ירושלים,"יצחק אלחנן,4","יצחק אלחנן,4, ירושלים",31.770569994938825,35.220859989161085
3000,149.0,ירושלים,"הגדוד העברי,22","הגדוד העברי,22, ירושלים",31.766820015277162,35.214580015844945
3000,150.0,ירושלים,"בן לברט,15","בן לברט,15, ירושלים",31.77084792414749,35.209983109742275
3000,151.0,ירושלים,"בן לברט,15","בן לברט,15, ירושלים",31.77084792414749,35.209983109742275
3000,154.0,ירושלים,"בן לברט,15","בן לברט,15, ירושלים",31.77084792414749,35.209983109742275
3000,155.0,ירושלים,"כט' בנובמבר,13","כט' בנובמבר,13, ירושלים",31.766260020326015,35.21625002623361
3000,157.0,ירושלים,"בן לברט,15","בן לברט,15, ירושלים",31.77084792414749,35.209983109742275
3000,158.0,ירושלים,"בן לברט,15","בן לברט,15, ירושלים",31.77084792414749,35.209983109742275
3000,159.0,ירושלים,"בן לברט,15","בן לברט,15, ירושלים",31.77084792414749,35.209983109742275
3000,161.1,ירושלים,"הקרן הקיימת,14","הקרן הקיימת,14, ירושלים",31.776922786137796,35.21470207206849
3000,161.2,ירושלים,"הקרן הקיימת,14","הקרן הקיימת,14, ירושלים",31.776922786137796,35.21470207206849
3000,162.0,ירושלים,"הקרן הקיימת,14","הקרן הקיימת,14, ירושלים",31.776922786137796,35.21470207206849
3000,165.0,ירושלים,"אוסישקין,38","אוסישקין,38, ירושלים",31.778239981168056,35.212580009928246
3000,171.0,ירושלים,"אוסישקין,38","אוסישקין,38, ירושלים",31.778239981168056,35.212580009928246
3000,172.0,ירושלים,"אוסישקין,38","אוסישקין,38, ירושלים",31.778239981168056,35.212580009928246
3000,186.0,ירושלים,"אוסישקין,38","אוסישקין,38, ירושלים",31.778239981168056,35.212580009928246
3000,188.0,ירושלים,"לוד,20","לוד,20, ירושלים",31.78003002041021,35.209799984102034
3000,191.0,ירושלים,"לוד,20","לוד,20, ירושלים",31.78003002041021,35.209799984102034
3000,192.0,ירושלים,"לוד,20","לוד,20, ירושלים",31.78003002041021,35.209799984102034
3000,193.1,ירושלים,"נרקיס,11","נרקיס,11, ירושלים",31.778870006920243,35.212759969389424
3000,193.2,ירושלים,"נרקיס,11","נרקיס,11, ירושלים",31.778870006920243,35.212759969389424
3000,194.0,ירושלים,"לוד,20","לוד,20, ירושלים",31.78003002041021,35.209799984102034
3000,195.0,ירושלים,"הלל,17","הלל,17, ירושלים",31.78049999372125,35.217379990600705
3000,196.0,ירושלים,"הלל,17","הלל,17, ירושלים",31.78049999372125,35.217379990600705
3000,198.0,ירושלים,"אהל משה,42","אהל משה,42, ירושלים",31.787352828066762,35.211512651063366
3000,200.0,ירושלים,"שד בן צבי יצחק,1","שד בן צבי יצחק,1, ירושלים",31.78447519354343,35.20803572233694
3000,201.0,ירושלים,"שד בן צבי יצחק,1","שד בן צבי יצחק,1, ירושלים",31.78447519354343,35.20803572233694
3000,203.0,ירושלים,"נרקיס,11","נרקיס,11, ירושלים",31.778870006920243,35.212759969389424
3000,205.0,ירושלים,"ילין דוד,41","ילין דוד,41, ירושלים",31.786570000362843,35.21399998814519
3000,206.0,ירושלים,"אהל משה,42","אהל משה,42, ירושלים",31.787352828066762,35.211512651063366
3000,207.0,ירושלים,"מנחם מנדל משקלוב,24","מנחם מנדל משקלוב,24, ירושלים",31.78576405421882,35.17412115321362
3000,208.0,ירושלים,"פרי חדש,1","פרי חדש,1, ירושלים",31.787108874254006,35.21716618366634
3000,209.1,ירושלים,"זכרון יעקב,5","זכרון יעקב,5, ירושלים",31.79551998702601,35.20102999880959
3000,209.2,ירושלים,"זכרון יעקב,5","זכרון יעקב,5, ירושלים",31.79551998702601,35.20102999880959
3000,210.0,ירושלים,"בזל,3","בזל,3, ירושלים",31.78445004999811,35.19261204879975
3000,211.0,ירושלים,"בזל,3","בזל,3, ירושלים",31.78445004999811,35.19261204879975
3000,212.0,ירושלים,"הרב אבן דנן,30","הרב אבן דנן,30, ירושלים",31.781315811325424,35.172369150558445
3000,213.0,ירושלים,"החלוץ,47","החלוץ,47, ירושלים",31.776659992419496,35.19078999533821
3000,214.0,ירושלים,"שחר,19","שחר,19, ירושלים",31.78072999314439,35.19424996115001
3000,215.1,ירושלים,"הקבלן,8","הקבלן,8, ירושלים",31.78808105088985,35.17486828512163
3000,215.2,ירושלים,"הקבלן,8","הקבלן,8, ירושלים",31.78808105088985,35.17486828512163
3000,216.0,ירושלים,"הרב טייב חי,46","הרב טייב חי,46, ירושלים",31.78343998816956,35.171469959975894
3000,217.0,ירושלים,"הרב אבן דנן,30","הרב אבן דנן,30, ירושלים",31.781315811325424,35.172369150558445
3000,218.0,ירושלים,"הרב אבן דנן,30","הרב אבן דנן,30, ירושלים",31.781315811325424,35.172369150558445
3000,219.0,ירושלים,"שמואל הנביא,83א","שמואל הנביא,83א, ירושלים",31.79482022561532,35.220462028851465
3000,220.0,ירושלים,"שמואל הנביא,83א","שמואל הנביא,83א, ירושלים",31.79482022561532,35.220462028851465
3000,221.1,ירושלים,"אהלי יוסף,15","אהלי יוסף,15, ירושלים",31.795981108610476,35.217141651694014
3000,221.2,ירושלים,"אהלי יוסף,15","אהלי יוסף,15, ירושלים",31.795981108610476,35.217141651694014
3000,222.0,ירושלים,"בן ציון,24","בן ציון,24, ירושלים",31.790149995028116,35.193510006737654
3000,223.0,ירושלים,"סורוצקין,40","סורוצקין,40, ירושלים",31.798919980320576,35.20749001540594
3000,224.0,ירושלים,"ויטל חיים,32","ויטל חיים,32, ירושלים",31.789229997335568,35.191600022461074
3000,225.0,ירושלים,"זכרון יעקב,3","זכרון יעקב,3, ירושלים",31.795879989767386,35.20007999390367
3000,226.0,ירושלים,"סורוצקין,38","סורוצקין,38, ירושלים",31.79744134984803,35.20574626852376
3000,227.0,ירושלים,"בן לברט,15","בן לברט,15, ירושלים",31.77084792414749,35.209983109742275
3000,228.0,ירושלים,"בן לברט,15","בן לברט,15, ירושלים",31.77084792414749,35.209983109742275
3000,229.0,ירושלים,"בן לברט,15","בן לברט,15, ירושלים",31.77084792414749,35.209983109742275
3000,230.0,ירושלים,"סורוצקין,38","סורוצקין,38, ירושלים",31.79744134984803,35.20574626852376
3000,231.0,ירושלים,"סורוצקין,40","סורוצקין,40, ירושלים",31.798919980320576,35.20749001540594
3000,232.0,ירושלים,"ראשון לציון,7","ראשון לציון,7, ירושלים",31.793519981109313,35.20144004151291
3000,233.0,ירושלים,"סורוצקין,40","סורוצקין,40, ירושלים",31.798919980320576,35.20749001540594
3000,234.0,ירושלים,"בן ציון,24","בן ציון,24, ירושלים",31.790149995028116,35.193510006737654
3000,235.0,ירושלים,"ויטל חיים,32","ויטל חיים,32, ירושלים",31.789229997335568,35.191600022461074
3000,236.0,ירושלים,"הקבלן,8","הקבלן,8, ירושלים",31.78808105088985,35.17486828512163
3000,237.0,ירושלים,"הרב אבן דנן,30","הרב אבן דנן,30, ירושלים",31.781315811325424,35.172369150558445
3000,238.0,ירושלים,"זכרון יעקב,5","זכרון יעקב,5, ירושלים",31.79551998702601,35.20102999880959
3000,239.0,ירושלים,"סורוצקין,38","סורוצקין,38, ירושלים",31.79744134984803,35.20574626852376
3000,240.0,ירושלים,"ויטל חיים,32","ויטל חיים,32, ירושלים",31.789229997335568,35.191600022461074
3000,241.0,ירושלים,"סורוצקין,40","סורוצקין,40, ירושלים",31.798919980320576,35.20749001540594
3000,242.0,ירושלים,"המ""ג,1","המ""ג,1, ירושלים",31.790854732368246,35.19988054035529
3000,243.0,ירושלים,"סורוצקין,40","סורוצקין,40, ירושלים",31.798919980320576,35.20749001540594
3000,244.0,ירושלים,"ראשון לציון,7","ראשון לציון,7, ירושלים",31.793519981109313,35.20144004151291
3000,245.0,ירושלים,"זכרון יעקב,3","זכרון יעקב,3, ירושלים",31.795879989767386,35.20007999390367
3000,246.0,ירושלים,"המ""ג,1","המ""ג,1, ירושלים",31.790854732368246,35.19988054035529
3000,247.0,ירושלים,"ראשון לציון,7","ראשון לציון,7, ירושלים",31.793519981109313,35.20144004151291
3000,248.0,ירושלים,"נג'ארה,27","נג'ארה,27, ירושלים",31.780030000000068,35.21873000000005
3000,249.0,ירושלים,"נג'ארה,27","נג'ארה,27, ירושלים",31.780030000000068,35.21873000000005
3000,250.0,ירושלים,"ויטל חיים,32","ויטל חיים,32, ירושלים",31.789229997335568,35.191600022461074
3000,251.0,ירושלים,"זכרון יעקב,3","זכרון יעקב,3, ירושלים",31.795879989767386,35.20007999390367
3000,252.0,ירושלים,"בן ציון,24","בן ציון,24, ירושלים",31.790149995028116,35.193510006737654
3000,253.0,ירושלים,"הרב טייב חי,46","הרב טייב חי,46, ירושלים",31.78343998816956,35.171469959975894
3000,254.0,ירושלים,"הרב אבן דנן,30","הרב אבן דנן,30, ירושלים",31.781315811325424,35.172369150558445
3000,255.0,ירושלים,"הקבלן,8","הקבלן,8, ירושלים",31.78808105088985,35.17486828512163
3000,256.0,ירושלים,"הרב אבן דנן,30","הרב אבן דנן,30, ירושלים",31.781315811325424,35.172369150558445
3000,257.0,ירושלים,"הרב טייב חי,46","הרב טייב חי,46, ירושלים",31.78343998816956,35.171469959975894
3000,258.0,ירושלים,"הרב טייב חי,46","הרב טייב חי,46, ירושלים",31.78343998816956,35.171469959975894
3000,259.0,ירושלים,"מנחם מנדל משקלוב,24","מנחם מנדל משקלוב,24, ירושלים",31.78576405421882,35.17412115321362
3000,260.0,ירושלים,"התומר,5","התומר,5, ירושלים",31.779056617026193,35.18587334836339
3000,261.0,ירושלים,"שחר,19","שחר,19, ירושלים",31.78072999314439,35.19424996115001
3000,262.0,ירושלים,"תורה ועבודה,6","תורה ועבודה,6, ירושלים",31.767283815209375,35.18238617473312
3000,263.0,ירושלים,"הקבלן,8","הקבלן,8, ירושלים",31.78808105088985,35.17486828512163
3000,264.0,ירושלים,"חכמי יוסף,28א","חכמי יוסף,28א, ירושלים",31.76213031251948,35.1908487200343
3000,265.0,ירושלים,"הרב טייב חי,46","הרב טייב חי,46, ירושלים",31.78343998816956,35.171469959975894
3000,266.0,ירושלים,"הרב אבן דנן,30","הרב אבן דנן,30, ירושלים",31.781315811325424,35.172369150558445
3000,267.1,ירושלים,"שד הרצל,137","שד הרצל,137, ירושלים",31.777869153164183,35.186135482091956
3000,267.2,ירושלים,"שד הרצל,137","שד הרצל,137, ירושלים",31.777869153164183,35.186135482091956
3000,268.0,ירושלים,"בן ציון,7","בן ציון,7, ירושלים",31.7887699984893,35.19642003588211
3000,269.0,ירושלים,"בן ציון,7","בן ציון,7, ירושלים",31.7887699984893,35.19642003588211
3000,270.0,ירושלים,"בן ציון,7","בן ציון,7, ירושלים",31.7887699984893,35.19642003588211
3000,271.0,ירושלים,"בזל,3","בזל,3, ירושלים",31.78445004999811,35.19261204879975
3000,272.0,ירושלים,"בזל,3","בזל,3, ירושלים",31.78445004999811,35.19261204879975
3000,273.0,ירושלים,"בזל,3","בזל,3, ירושלים",31.78445004999811,35.19261204879975
3000,274.0,ירושלים,"מעגל בית המדרש,8","מעגל בית המדרש,8, ירושלים",31.781870015795278,35.19138997196751
3000,275.0,ירושלים,"שחר,19","שחר,19, ירושלים",31.78072999314439,35.19424996115001
3000,276.0,ירושלים,"התומר,5","התומר,5, ירושלים",31.779056617026193,35.18587334836339
3000,277.0,ירושלים,"מעגל בית המדרש,8","מעגל בית המדרש,8, ירושלים",31.781870015795278,35.19138997196751
3000,278.0,ירושלים,"בן ציון,7","בן ציון,7, ירושלים",31.7887699984893,35.19642003588211
3000,279.0,ירושלים,"התומר,5","התומר,5, ירושלים",31.779056617026193,35.18587334836339
3000,280.0,ירושלים,"שד הרצל,137","שד הרצל,137, ירושלים",31.777869153164183,35.186135482091956
3000,281.0,ירושלים,"החלוץ,47","החלוץ,47, ירושלים",31.776659992419496,35.19078999533821
3000,282.0,ירושלים,"שד הרצל,137","שד הרצל,137, ירושלים",31.777869153164183,35.186135482091956
3000,283.0,ירושלים,"התומר,5","התומר,5, ירושלים",31.779056617026193,35.18587334836339
3000,284.0,ירושלים,"התומר,5","התומר,5, ירושלים",31.779056617026193,35.18587334836339
3000,285.0,ירושלים,"הפסגה,24","הפסגה,24, ירושלים",31.76823999349412,35.18262996113981
3000,286.0,ירושלים,"שד הרצל,137","שד הרצל,137, ירושלים",31.777869153164183,35.186135482091956
3000,287.1,ירושלים,"הפסגה,24","הפסגה,24, ירושלים",31.76823999349412,35.18262996113981
3000,287.2,ירושלים,"הפסגה,24","הפסגה,24, ירושלים",31.76823999349412,35.18262996113981
3000,288.0,ירושלים,"הפסגה,24","הפסגה,24, ירושלים",31.76823999349412,35.18262996113981
3000,289.0,ירושלים,"תורה ועבודה,6","תורה ועבודה,6, ירושלים",31.767283815209375,35.18238617473312
3000,290.0,ירושלים,"הרב פרנק,20","הרב פרנק,20, ירושלים",31.763139982597508,35.18533999807451
3000,291.0,ירושלים,"חכמי יוסף,28א","חכמי יוסף,28א, ירושלים",31.76213031251948,35.1908487200343
3000,292.0,ירושלים,"חכמי יוסף,28א","חכמי יוסף,28א, ירושלים",31.76213031251948,35.1908487200343
3000,293.0,ירושלים,"שערי תורה,2","שערי תורה,2, ירושלים",31.766399998109037,35.182480008892014
3000,294.0,ירושלים,"תורה ועבודה,6","תורה ועבודה,6, ירושלים",31.767283815209375,35.18238617473312
3000,295.0,ירושלים,"החלוץ,47","החלוץ,47, ירושלים",31.776659992419496,35.19078999533821
3000,296.0,ירושלים,"שד הרצל,137","שד הרצל,137, ירושלים",31.777869153164183,35.186135482091956
3000,297.0,ירושלים,"הרב פרנק,20","הרב פרנק,20, ירושלים",31.763139982597508,35.18533999807451
3000,298.0,ירושלים,"שד הרצל,137","שד הרצל,137, ירושלים",31.777869153164183,35.186135482091956
3000,299.0,ירושלים,"שד הרצל,137","שד הרצל,137, ירושלים",31.777869153164183,35.186135482091956
3000,300.0,ירושלים,"דולצ'ין,21","דולצ'ין,21, ירושלים",31.750302458809706,35.16943086271718
3000,301.0,ירושלים,"דולצ'ין,21","דולצ'ין,21, ירושלים",31.750302458809706,35.16943086271718
3000,302.0,ירושלים,"דולצ'ין,21","דולצ'ין,21, ירושלים",31.750302458809706,35.16943086271718
3000,303.0,ירושלים,"מגן האלף,1","מגן האלף,1, ירושלים",31.794867860480267,35.22301557812251
3000,304.0,ירושלים,"שד הרצל,137","שד הרצל,137, ירושלים",31.777869153164183,35.186135482091956
3000,305.0,ירושלים,"קוסטה ריקה,17","קוסטה ריקה,17, ירושלים",31.754810005312237,35.17148001825973
3000,306.0,ירושלים,"דולצ'ין,21","דולצ'ין,21, ירושלים",31.750302458809706,35.16943086271718
3000,307.0,ירושלים,"האייל,72","האייל,72, ירושלים",31.74872080920316,35.18128243335201
3000,308.0,ירושלים,"החרצית,10","החרצית,10, ירושלים",31.757758508647353,35.16260928940074
3000,309.0,ירושלים,"הרפוב הדומיניקנית,3","הרפוב הדומיניקנית,3, ירושלים",31.755300011371872,35.16781000195434
3000,310.0,ירושלים,"אולשוונגר,48","אולשוונגר,48, ירושלים",31.7691673307423,35.17082200529605
3000,311.0,ירושלים,"זנגויל,29","זנגויל,29, ירושלים",31.780030000000068,35.21873000000005
3000,312.0,ירושלים,"אולשוונגר,3","אולשוונגר,3, ירושלים",31.76851001650492,35.17008996343711
3000,313.0,ירושלים,"החרצית,10","החרצית,10, ירושלים",31.757758508647353,35.16260928940074
3000,314.0,ירושלים,"בורוכוב,9א","בורוכוב,9א, ירושלים",31.76810999017586,35.17568999676766
3000,315.0,ירושלים,"אולשוונגר,3","אולשוונגר,3, ירושלים",31.76851001650492,35.17008996343711
3000,316.0,ירושלים,"זנגויל,25","זנגויל,25, ירושלים",31.780030000000068,35.21873000000005
3000,317.0,ירושלים,"זנגויל,29","זנגויל,29, ירושלים",31.780030000000068,35.21873000000005
3000,318.0,ירושלים,"זנגויל,25","זנגויל,25, ירושלים",31.780030000000068,35.21873000000005
3000,319.0,ירושלים,"בורוכוב,9א","בורוכוב,9א, ירושלים",31.76810999017586,35.17568999676766
3000,320.0,ירושלים,"אולשוונגר,3","אולשוונגר,3, ירושלים",31.76851001650492,35.17008996343711
3000,321.0,ירושלים,"זנגויל,25","זנגויל,25, ירושלים",31.780030000000068,35.21873000000005
3000,322.0,ירושלים,"המעיין,2","המעיין,2, ירושלים",31.766900020542977,35.16203998362741
3000,323.0,ירושלים,"המעיין,2","המעיין,2, ירושלים",31.766900020542977,35.16203998362741
3000,324.0,ירושלים,"אולשוונגר,48","אולשוונגר,48, ירושלים",31.7691673307423,35.17082200529605
3000,325.0,ירושלים,"החרצית,10","החרצית,10, ירושלים",31.757758508647353,35.16260928940074
3000,326.0,ירושלים,"דהומיי,7","דהומיי,7, ירושלים",31.755790017431508,35.165700025468
3000,327.0,ירושלים,"הנורית,18","הנורית,18, ירושלים",31.7525337199346,35.17207619215263
3000,328.0,ירושלים,"צ'ילה,8","צ'ילה,8, ירושלים",31.760329991467444,35.17060000224532
3000,329.0,ירושלים,"דולצ'ין,21","דולצ'ין,21, ירושלים",31.750302458809706,35.16943086271718
3000,330.0,ירושלים,"צ'ילה,8","צ'ילה,8, ירושלים",31.760329991467444,35.17060000224532
3000,331.0,ירושלים,"גרינולד,8","גרינולד,8, ירושלים",31.757010003438694,35.175859981764035
3000,332.1,ירושלים,"גואטמאלה,3","גואטמאלה,3, ירושלים",31.760100961210863,35.17689724443232
3000,332.2,ירושלים,"גואטמאלה,3","גואטמאלה,3, ירושלים",31.760100961210863,35.17689724443232
3000,333.0,ירושלים,"וולטה העלית,12","וולטה העלית,12, ירושלים",31.757530016711698,35.177680028219555
3000,334.0,ירושלים,"גרינולד,8","גרינולד,8, ירושלים",31.757010003438694,35.175859981764035
3000,335.0,ירושלים,"רקם,2","רקם,2, ירושלים",31.753220000189373,35.18753999620097
3000,336.0,ירושלים,"דהומיי,6","דהומיי,6, ירושלים",31.757029994277758,35.1658600359996
3000,337.0,ירושלים,"דהומיי,6","דהומיי,6, ירושלים",31.757029994277758,35.1658600359996
3000,338.0,ירושלים,"האייל,72","האייל,72, ירושלים",31.74872080920316,35.18128243335201
3000,339.0,ירושלים,"וולטה העלית,12","וולטה העלית,12, ירושלים",31.757530016711698,35.177680028219555
3000,340.0,ירושלים,"וולטה העלית,12","וולטה העלית,12, ירושלים",31.757530016711698,35.177680028219555
3000,341.0,ירושלים,"שטרן אברהם,3","שטרן אברהם,3, ירושלים",31.75651279515912,35.18066323323403
3000,342.0,ירושלים,"הנורית,18","הנורית,18, ירושלים",31.7525337199346,35.17207619215263
3000,343.0,ירושלים,"וולטה העלית,12","וולטה העלית,12, ירושלים",31.757530016711698,35.177680028219555
3000,344.0,ירושלים,"קוסטה ריקה,17","קוסטה ריקה,17, ירושלים",31.754810005312237,35.17148001825973
3000,345.0,ירושלים,"זנגויל,29","זנגויל,29, ירושלים",31.780030000000068,35.21873000000005
3000,346.0,ירושלים,"שד שרת משה,1","שד שרת משה,1, ירושלים",31.756740866761092,35.185910443897214
3000,347.0,ירושלים,"שד שרת משה,1","שד שרת משה,1, ירושלים",31.756740866761092,35.185910443897214
3000,348.0,ירושלים,"החרצית,10","החרצית,10, ירושלים",31.757758508647353,35.16260928940074
3000,349.0,ירושלים,"שד שרת משה,1","שד שרת משה,1, ירושלים",31.756740866761092,35.185910443897214
3000,350.0,ירושלים,"שטרן אברהם,3","שטרן אברהם,3, ירושלים",31.75651279515912,35.18066323323403
3000,351.0,ירושלים,"שד שרת משה,1","שד שרת משה,1, ירושלים",31.756740866761092,35.185910443897214
3000,352.0,ירושלים,"אולשוונגר,3","אולשוונגר,3, ירושלים",31.76851001650492,35.17008996343711
3000,353.0,ירושלים,"רקם,2","רקם,2, ירושלים",31.753220000189373,35.18753999620097
3000,354.0,ירושלים,"שד שרת משה,1","שד שרת משה,1, ירושלים",31.756740866761092,35.185910443897214
3000,355.0,ירושלים,"זנגויל,29","זנגויל,29, ירושלים",31.780030000000068,35.21873000000005
3000,356.0,ירושלים,"קוסטה ריקה,17","קוסטה ריקה,17, ירושלים",31.754810005312237,35.17148001825973
3000,357.0,ירושלים,"הנורית,18","הנורית,18, ירושלים",31.7525337199346,35.17207619215263
3000,358.0,ירושלים,"גרינולד,8","גרינולד,8, ירושלים",31.757010003438694,35.175859981764035
3000,359.0,ירושלים,"וולטה העלית,12","וולטה העלית,12, ירושלים",31.757530016711698,35.177680028219555
3000,360.0,ירושלים,"שד שרת משה,1","שד שרת משה,1, ירושלים",31.756740866761092,35.185910443897214
3000,361.0,ירושלים,"האייל,72","האייל,72, ירושלים",31.74872080920316,35.18128243335201
3000,362.0,ירושלים,"שד דב יוסף,2","שד דב יוסף,2, ירושלים",31.740400014755508,35.19547577185597
3000,363.0,ירושלים,"רבי צדוק,12","רבי צדוק,12, ירושלים",31.755150017214547,35.19387000947904
3000,364.0,ירושלים,"מרגולין,3","מרגולין,3, ירושלים",31.75448998424899,35.19508999548623
3000,365.0,ירושלים,"מרגולין,3","מרגולין,3, ירושלים",31.75448998424899,35.19508999548623
3000,366.0,ירושלים,"בר יוחאי,53","בר יוחאי,53, ירושלים",31.753671853603247,35.192886003559934
3000,367.0,ירושלים,"רבי צדוק,12","רבי צדוק,12, ירושלים",31.755150017214547,35.19387000947904
3000,368.0,ירושלים,"מרגולין,3","מרגולין,3, ירושלים",31.75448998424899,35.19508999548623
3000,369.0,ירושלים,"בר יוחאי,53","בר יוחאי,53, ירושלים",31.753671853603247,35.192886003559934
3000,370.0,ירושלים,"בעהם אריה,7","בעהם אריה,7, ירושלים",31.752062375753574,35.19953286804481
3000,371.1,ירושלים,"יוסי בן יועזר,24","יוסי בן יועזר,24, ירושלים",31.754899985042826,35.20658996664295
3000,371.2,ירושלים,"יוסי בן יועזר,24","יוסי בן יועזר,24, ירושלים",31.754899985042826,35.20658996664295
3000,372.0,ירושלים,"יהודה הנשיא,26","יהודה הנשיא,26, ירושלים",31.754719983672132,35.203499978037314
3000,373.0,ירושלים,"אליעזר הגדול,4","אליעזר הגדול,4, ירושלים",31.754729092671983,35.205124184477256
3000,374.0,ירושלים,"יהודה הנשיא,26","יהודה הנשיא,26, ירושלים",31.754719983672132,35.203499978037314
3000,375.0,ירושלים,"יוסי בן יועזר,24","יוסי בן יועזר,24, ירושלים",31.754899985042826,35.20658996664295
3000,376.0,ירושלים,"יוחנן בן זכאי,33","יוחנן בן זכאי,33, ירושלים",31.75867927676797,35.20791269877093
3000,377.0,ירושלים,"רבי חייא,3","רבי חייא,3, ירושלים",31.762440009863326,35.21278997660278
3000,378.0,ירושלים,"שד שרת משה,1","שד שרת משה,1, ירושלים",31.756740866761092,35.185910443897214
3000,379.0,ירושלים,"בן גמלא יהושע,7","בן גמלא יהושע,7, ירושלים",31.760570007264874,35.21221003272208
3000,380.0,ירושלים,"יוחנן בן זכאי,33","יוחנן בן זכאי,33, ירושלים",31.75867927676797,35.20791269877093
3000,381.0,ירושלים,"הורקניה,21","הורקניה,21, ירושלים",31.75789999391786,35.2019599709669
3000,382.0,ירושלים,"יוחנן בן זכאי,33","יוחנן בן זכאי,33, ירושלים",31.75867927676797,35.20791269877093
3000,383.0,ירושלים,"יהודה הנשיא,26","יהודה הנשיא,26, ירושלים",31.754719983672132,35.203499978037314
3000,384.0,ירושלים,"יוחנן בן זכאי,33","יוחנן בן זכאי,33, ירושלים",31.75867927676797,35.20791269877093
3000,385.0,ירושלים,"יהודה הנשיא,26","יהודה הנשיא,26, ירושלים",31.754719983672132,35.203499978037314
3000,386.0,ירושלים,"בעהם אריה,7","בעהם אריה,7, ירושלים",31.752062375753574,35.19953286804481
3000,387.0,ירושלים,"אליעזר הגדול,4","אליעזר הגדול,4, ירושלים",31.754729092671983,35.205124184477256
3000,388.0,ירושלים,"רבי חייא,3","רבי חייא,3, ירושלים",31.762440009863326,35.21278997660278
3000,389.0,ירושלים,"יוחנן בן זכאי,33","יוחנן בן זכאי,33, ירושלים",31.75867927676797,35.20791269877093
3000,390.0,ירושלים,"שד דב יוסף,2","שד דב יוסף,2, ירושלים",31.740400014755508,35.19547577185597
3000,391.0,ירושלים,"קוסטה ריקה,17","קוסטה ריקה,17, ירושלים",31.754810005312237,35.17148001825973
3000,392.0,ירושלים,"הורקניה,21","הורקניה,21, ירושלים",31.75789999391786,35.2019599709669
3000,393.0,ירושלים,"אהרוני,14","אהרוני,14, ירושלים",31.780030000000068,35.21873000000005
3000,394.0,ירושלים,"הורקניה,21","הורקניה,21, ירושלים",31.75789999391786,35.2019599709669
3000,395.0,ירושלים,"אהרוני,14","אהרוני,14, ירושלים",31.780030000000068,35.21873000000005
3000,396.0,ירושלים,"האייל,72","האייל,72, ירושלים",31.74872080920316,35.18128243335201
3000,397.0,ירושלים,"חכמי יוסף,28א","חכמי יוסף,28א, ירושלים",31.76213031251948,35.1908487200343
3000,398.0,ירושלים,"חכמי יוסף,28א","חכמי יוסף,28א, ירושלים",31.76213031251948,35.1908487200343
3000,399.0,ירושלים,"מן,7","מן,7, ירושלים",31.76070998504791,35.19830998741011
3000,400.0,ירושלים,"מן,7","מן,7, ירושלים",31.76070998504791,35.19830998741011
3000,401.0,ירושלים,"אהרוני,14","אהרוני,14, ירושלים",31.780030000000068,35.21873000000005
3000,402.0,ירושלים,"מן,7","מן,7, ירושלים",31.76070998504791,35.19830998741011
3000,403.0,ירושלים,"הורקניה,21","הורקניה,21, ירושלים",31.75789999391786,35.2019599709669
3000,404.0,ירושלים,"אהרוני,14","אהרוני,14, ירושלים",31.780030000000068,35.21873000000005
3000,405.0,ירושלים,"בן לברט,15","בן לברט,15, ירושלים",31.77084792414749,35.209983109742275
3000,406.0,ירושלים,"הפלמ""ח,57","הפלמ""ח,57, ירושלים",31.76411999471678,35.20729002319615
3000,407.0,ירושלים,"הגדוד העברי,22","הגדוד העברי,22, ירושלים",31.766820015277162,35.214580015844945
3000,408.0,ירושלים,"הפלמ""ח,57","הפלמ""ח,57, ירושלים",31.76411999471678,35.20729002319615
3000,409.0,ירושלים,"מן,7","מן,7, ירושלים",31.76070998504791,35.19830998741011
3000,410.0,ירושלים,"אהרוני,14","אהרוני,14, ירושלים",31.780030000000068,35.21873000000005
3000,411.0,ירושלים,"מן,7","מן,7, ירושלים",31.76070998504791,35.19830998741011
3000,412.0,ירושלים,"הפלמ""ח,57","הפלמ""ח,57, ירושלים",31.76411999471678,35.20729002319615
3000,413.0,ירושלים,"ילין דוד,41","ילין דוד,41, ירושלים",31.786570000362843,35.21399998814519
3000,414.0,ירושלים,"שד הרצל,137","שד הרצל,137, ירושלים",31.777869153164183,35.186135482091956
3000,415.0,ירושלים,"חכמי יוסף,28א","חכמי יוסף,28א, ירושלים",31.76213031251948,35.1908487200343
3000,416.0,ירושלים,"אולשוונגר,3","אולשוונגר,3, ירושלים",31.76851001650492,35.17008996343711
3000,417.0,ירושלים,"שערי תורה,2","שערי תורה,2, ירושלים",31.766399998109037,35.182480008892014
3000,418.0,ירושלים,"הרב פרנק,20","הרב פרנק,20, ירושלים",31.763139982597508,35.18533999807451
3000,419.0,ירושלים,"אולשוונגר,48","אולשוונגר,48, ירושלים",31.7691673307423,35.17082200529605
3000,420.0,ירושלים,"חכמי יוסף,28א","חכמי יוסף,28א, ירושלים",31.76213031251948,35.1908487200343
3000,421.0,ירושלים,"החלוץ,47","החלוץ,47, ירושלים",31.776659992419496,35.19078999533821
3000,422.0,ירושלים,"רזיאל דוד,13","רזיאל דוד,13, ירושלים",31.74634163937771,35.23153822133873
3000,423.0,ירושלים,"תמיר שמואל,74","תמיר שמואל,74, ירושלים",31.781301999829104,35.219366944743975
3000,424.0,ירושלים,"נג'ארה,27","נג'ארה,27, ירושלים",31.780030000000068,35.21873000000005
3000,425.0,ירושלים,"דהומיי,6","דהומיי,6, ירושלים",31.757029994277758,35.1658600359996
3000,426.0,ירושלים,"בר יוחאי,53","בר יוחאי,53, ירושלים",31.753671853603247,35.192886003559934
3000,427.0,ירושלים,בית צפפה,"בית צפפה, ירושלים",31.79368005450521,35.20418511480287
3000,428.0,ירושלים,"כובשי קטמון,15","כובשי קטמון,15, ירושלים",31.765310077386705,35.21148337737903
3000,429.0,ירושלים,"הפלמ""ח,57","הפלמ""ח,57, ירושלים",31.76411999471678,35.20729002319615
3000,430.0,ירושלים,"כובשי קטמון,15","כובשי קטמון,15, ירושלים",31.765310077386705,35.21148337737903
3000,431.0,ירושלים,"כובשי קטמון,15","כובשי קטמון,15, ירושלים",31.765310077386705,35.21148337737903
3000,432.0,ירושלים,"כובשי קטמון,15","כובשי קטמון,15, ירושלים",31.765310077386705,35.21148337737903
3000,433.0,ירושלים,"כט' בנובמבר,13","כט' בנובמבר,13, ירושלים",31.766260020326015,35.21625002623361
3000,434.0,ירושלים,"כובשי קטמון,15","כובשי קטמון,15, ירושלים",31.765310077386705,35.21148337737903
3000,435.0,ירושלים,"הגדוד העברי,22","הגדוד העברי,22, ירושלים",31.766820015277162,35.214580015844945
3000,436.0,ירושלים,"עמק רפאים,22","עמק רפאים,22, ירושלים",31.76529999904581,35.22105998137084
3000,437.0,ירושלים,"מסריק,10","מסריק,10, ירושלים",31.763080010080287,35.221099963049
3000,438.0,ירושלים,"עמק רפאים,22","עמק רפאים,22, ירושלים",31.76529999904581,35.22105998137084
3000,439.0,ירושלים,"רחל אמנו,27","רחל אמנו,27, ירושלים",31.763679986709576,35.21372003257915
3000,440.0,ירושלים,"מסריק,10","מסריק,10, ירושלים",31.763080010080287,35.221099963049
3000,441.0,ירושלים,"רחל אמנו,27","רחל אמנו,27, ירושלים",31.763679986709576,35.21372003257915
3000,442.0,ירושלים,"כט' בנובמבר,13","כט' בנובמבר,13, ירושלים",31.766260020326015,35.21625002623361
3000,443.0,ירושלים,"הרב אבן דנן,30","הרב אבן דנן,30, ירושלים",31.781315811325424,35.172369150558445
3000,444.0,ירושלים,"שד הרצל,137","שד הרצל,137, ירושלים",31.777869153164183,35.186135482091956
3000,445.0,ירושלים,"מעגלות הרב פרדס,39","מעגלות הרב פרדס,39, ירושלים",31.838669982663674,35.245560032895554
3000,450.0,ירושלים,"ירמיהו,5","ירמיהו,5, ירושלים",31.791969999574107,35.21205002219045
3000,451.0,ירושלים,"קדושי בבל,22","קדושי בבל,22, ירושלים",31.747829901886366,35.238128016527114
3000,452.0,ירושלים,"רחל אמנו,27","רחל אמנו,27, ירושלים",31.763679986709576,35.21372003257915
3000,453.0,ירושלים,"ראשון לציון,7","ראשון לציון,7, ירושלים",31.793519981109313,35.20144004151291
3000,456.0,ירושלים,"יהודה,31","יהודה,31, ירושלים",31.75747000228496,35.217289968960586
3000,457.0,ירושלים,בית צפפה,"בית צפפה, ירושלים",31.79368005450521,35.20418511480287
3000,458.0,ירושלים,בית צפפה,"בית צפפה, ירושלים",31.79368005450521,35.20418511480287
3000,459.0,ירושלים,"גנרל קניג פייר,16","גנרל קניג פייר,16, ירושלים",31.754534967132614,35.214293096202255
3000,460.0,ירושלים,"דרך בית לחם,52","דרך בית לחם,52, ירושלים",31.761210007481836,35.22223998569987
3000,461.0,ירושלים,"גדעון,14","גדעון,14, ירושלים",31.760249986201643,35.22012003474873
3000,462.0,ירושלים,"דרך חברון,56","דרך חברון,56, ירושלים",31.759429984613988,35.2232599794973
3000,463.0,ירושלים,"גדעון,14","גדעון,14, ירושלים",31.760249986201643,35.22012003474873
3000,464.0,ירושלים,"יהודה,31","יהודה,31, ירושלים",31.75747000228496,35.217289968960586
3000,465.0,ירושלים,"גנרל קניג פייר,16","גנרל קניג פייר,16, ירושלים",31.754534967132614,35.214293096202255
3000,466.0,ירושלים,בית צפפה,"בית צפפה, ירושלים",31.79368005450521,35.20418511480287
3000,467.0,ירושלים,"קבוץ גלויות,4","קבוץ גלויות,4, ירושלים",31.75607001490708,35.219040026524596
3000,468.0,ירושלים,"בית הערבה,7","בית הערבה,7, ירושלים",31.749988413140102,35.221522849270926
3000,469.0,ירושלים,"בית""ר,8","בית""ר,8, ירושלים",31.75345172392508,35.22437829439937
3000,470.0,ירושלים,"דרך בית לחם,117","דרך בית לחם,117, ירושלים",31.74831998150252,35.21684002839814
3000,471.0,ירושלים,"קבוץ גלויות,4","קבוץ גלויות,4, ירושלים",31.75607001490708,35.219040026524596
3000,472.0,ירושלים,"יהודה,31","יהודה,31, ירושלים",31.75747000228496,35.217289968960586
3000,473.0,ירושלים,"קבוץ גלויות,4","קבוץ גלויות,4, ירושלים",31.75607001490708,35.219040026524596
3000,474.0,ירושלים,"נחשון,11","נחשון,11, ירושלים",31.764431748569216,35.22625630315268
3000,475.0,ירושלים,"נחשון,11","נחשון,11, ירושלים",31.764431748569216,35.22625630315268
3000,476.0,ירושלים,"קבוץ גלויות,4","קבוץ גלויות,4, ירושלים",31.75607001490708,35.219040026524596
3000,477.0,ירושלים,"דרך בית לחם,113","דרך בית לחם,113, ירושלים",31.749429996940037,35.21744000502744
3000,478.0,ירושלים,"דרך בית לחם,117","דרך בית לחם,117, ירושלים",31.74831998150252,35.21684002839814
3000,479.0,ירושלים,"דרך בית לחם,117","דרך בית לחם,117, ירושלים",31.74831998150252,35.21684002839814
3000,480.0,ירושלים,"דרך בית לחם,113","דרך בית לחם,113, ירושלים",31.749429996940037,35.21744000502744
3000,481.0,ירושלים,"דרך בית לחם,117","דרך בית לחם,117, ירושלים",31.74831998150252,35.21684002839814
3000,482.0,ירושלים,"בית""ר,8","בית""ר,8, ירושלים",31.75345172392508,35.22437829439937
3000,483.0,ירושלים,"נחשון,11","נחשון,11, ירושלים",31.764431748569216,35.22625630315268
3000,484.0,ירושלים,"דרך בית לחם,113","דרך בית לחם,113, ירושלים",31.749429996940037,35.21744000502744
3000,485.0,ירושלים,"בית""ר,8","בית""ר,8, ירושלים",31.75345172392508,35.22437829439937
3000,486.0,ירושלים,"דרך בית לחם,117","דרך בית לחם,117, ירושלים",31.74831998150252,35.21684002839814
3000,487.0,ירושלים,"בית""ר,8","בית""ר,8, ירושלים",31.75345172392508,35.22437829439937
3000,488.0,ירושלים,"כפר עציון,1","כפר עציון,1, ירושלים",31.74706001381719,35.22406003215539
3000,489.0,ירושלים,בית צפפה,"בית צפפה, ירושלים",31.79368005450521,35.20418511480287
3000,490.0,ירושלים,"דרך בית לחם,113","דרך בית לחם,113, ירושלים",31.749429996940037,35.21744000502744
3000,491.0,ירושלים,"דרך בית לחם,117","דרך בית לחם,117, ירושלים",31.74831998150252,35.21684002839814
3000,496.0,ירושלים,בית צפפה,"בית צפפה, ירושלים",31.79368005450521,35.20418511480287
3000,498.0,ירושלים,"מעגלי הרי""ם לוין,27","מעגלי הרי""ם לוין,27, ירושלים",31.803299985734427,35.21664003618835
3000,499.0,ירושלים,"מעגלי הרי""ם לוין,27","מעגלי הרי""ם לוין,27, ירושלים",31.803299985734427,35.21664003618835
3000,500.0,ירושלים,בתי מחסה,"בתי מחסה, ירושלים",31.774237441010236,35.233008229360564
3000,501.0,ירושלים,"גריק פטריאכט,26","גריק פטריאכט,26, ירושלים",31.780030000000068,35.21873000000005
3000,502.0,ירושלים,שייח' ג'ראח,"שייח' ג'ראח, ירושלים",31.7776200701118,35.249842849110415
3000,503.0,ירושלים,"גריק פטריאכט,26","גריק פטריאכט,26, ירושלים",31.780030000000068,35.21873000000005
3000,504.0,ירושלים,"גריק פטריאכט,26","גריק פטריאכט,26, ירושלים",31.780030000000068,35.21873000000005
3000,505.0,ירושלים,"גריק פטריאכט,26","גריק פטריאכט,26, ירושלים",31.780030000000068,35.21873000000005
3000,506.0,ירושלים,בתי מחסה,"בתי מחסה, ירושלים",31.774237441010236,35.233008229360564
3000,507.0,ירושלים,בתי מחסה,"בתי מחסה, ירושלים",31.774237441010236,35.233008229360564
3000,508.0,ירושלים,"גריק פטריאכט,26","גריק פטריאכט,26, ירושלים",31.780030000000068,35.21873000000005
3000,509.0,ירושלים,"גריק פטריאכט,26","גריק פטריאכט,26, ירושלים",31.780030000000068,35.21873000000005
3000,510.0,ירושלים,"גריק פטריאכט,26","גריק פטריאכט,26, ירושלים",31.780030000000068,35.21873000000005
3000,511.0,ירושלים,"גריק פטריאכט,26","גריק פטריאכט,26, ירושלים",31.780030000000068,35.21873000000005
3000,512.0,ירושלים,"גריק פטריאכט,26","גריק פטריאכט,26, ירושלים",31.780030000000068,35.21873000000005
3000,513.0,ירושלים,"גריק פטריאכט,26","גריק פטריאכט,26, ירושלים",31.780030000000068,35.21873000000005
3000,514.0,ירושלים,"גריק פטריאכט,26","גריק פטריאכט,26, ירושלים",31.780030000000068,35.21873000000005
3000,515.0,ירושלים,"גריק פטריאכט,26","גריק פטריאכט,26, ירושלים",31.780030000000068,35.21873000000005
3000,516.0,ירושלים,"גריק פטריאכט,26","גריק פטריאכט,26, ירושלים",31.780030000000068,35.21873000000005
3000,517.0,ירושלים,"גריק פטריאכט,26","גריק פטריאכט,26, ירושלים",31.780030000000068,35.21873000000005
3000,518.0,ירושלים,שייח' ג'ראח,"שייח' ג'ראח, ירושלים",31.7776200701118,35.249842849110415
3000,519.0,ירושלים,שייח' ג'ראח,"שייח' ג'ראח, ירושלים",31.7776200701118,35.249842849110415
3000,521.0,ירושלים,"אצ""ל,20","אצ""ל,20, ירושלים",31.801370010618754,35.23454998397946
3000,522.0,ירושלים,שייח' ג'ראח,"שייח' ג'ראח, ירושלים",31.7776200701118,35.249842849110415
3000,524.0,ירושלים,שייח' ג'ראח,"שייח' ג'ראח, ירושלים",31.7776200701118,35.249842849110415
3000,525.0,ירושלים,שייח' ג'ראח,"שייח' ג'ראח, ירושלים",31.7776200701118,35.249842849110415
3000,526.0,ירושלים,שייח' ג'ראח,"שייח' ג'ראח, ירושלים",31.7776200701118,35.249842849110415
3000,527.0,ירושלים,שייח' ג'ראח,"שייח' ג'ראח, ירושלים",31.7776200701118,35.249842849110415
3000,528.0,ירושלים,שייח' ג'ראח,"שייח' ג'ראח, ירושלים",31.7776200701118,35.249842849110415
3000,529.0,ירושלים,שייח' ג'ראח,"שייח' ג'ראח, ירושלים",31.7776200701118,35.249842849110415
3000,530.0,ירושלים,"לוחמי הגטאות,7","לוחמי הגטאות,7, ירושלים",31.80145001588457,35.239400004613856
3000,531.0,ירושלים,שייח' ג'ראח,"שייח' ג'ראח, ירושלים",31.7776200701118,35.249842849110415
3000,532.0,ירושלים,שייח' ג'ראח,"שייח' ג'ראח, ירושלים",31.7776200701118,35.249842849110415
3000,533.0,ירושלים,שייח' ג'ראח,"שייח' ג'ראח, ירושלים",31.7776200701118,35.249842849110415
3000,534.0,ירושלים,שייח' ג'ראח,"שייח' ג'ראח, ירושלים",31.7776200701118,35.249842849110415
3000,535.0,ירושלים,שייח' ג'ראח,"שייח' ג'ראח, ירושלים",31.7776200701118,35.249842849110415
3000,536.0,ירושלים,שייח' ג'ראח,"שייח' ג'ראח, ירושלים",31.7776200701118,35.249842849110415
3000,537.0,ירושלים,שייח' ג'ראח,"שייח' ג'ראח, ירושלים",31.7776200701118,35.249842849110415
3000,538.0,ירושלים,שייח' ג'ראח,"שייח' ג'ראח, ירושלים",31.7776200701118,35.249842849110415
3000,539.0,ירושלים,שייח' ג'ראח,"שייח' ג'ראח, ירושלים",31.7776200701118,35.249842849110415
3000,540.0,ירושלים,שייח' ג'ראח,"שייח' ג'ראח, ירושלים",31.7776200701118,35.249842849110415
3000,541.0,ירושלים,שייח' ג'ראח,"שייח' ג'ראח, ירושלים",31.7776200701118,35.249842849110415
3000,542.0,ירושלים,שייח' ג'ראח,"שייח' ג'ראח, ירושלים",31.7776200701118,35.249842849110415
3000,543.0,ירושלים,"גריק פטריאכט,26","גריק פטריאכט,26, ירושלים",31.780030000000068,35.21873000000005
3000,544.0,ירושלים,"גריק פטריאכט,26","גריק פטריאכט,26, ירושלים",31.780030000000068,35.21873000000005
3000,545.0,ירושלים,צור בחר,"צור בחר, ירושלים",31.75058096784882,35.165524190899184
3000,546.0,ירושלים,צור בחר,"צור בחר, ירושלים",31.75058096784882,35.165524190899184
3000,547.0,ירושלים,צור בחר,"צור בחר, ירושלים",31.75058096784882,35.165524190899184
3000,548.0,ירושלים,בית צפפה,"בית צפפה, ירושלים",31.79368005450521,35.20418511480287
3000,549.0,ירושלים,צור בחר,"צור בחר, ירושלים",31.75058096784882,35.165524190899184
3000,550.0,ירושלים,"ככר ארן זלמן,11","ככר ארן זלמן,11, ירושלים",31.801852760941777,35.22703264810449
3000,551.0,ירושלים,"ככר ארן זלמן,11","ככר ארן זלמן,11, ירושלים",31.801852760941777,35.22703264810449
3000,552.0,ירושלים,"ככר ארן זלמן,7","ככר ארן זלמן,7, ירושלים",31.802030001674794,35.22607998700164
3000,553.0,ירושלים,"ככר ארן זלמן,7","ככר ארן זלמן,7, ירושלים",31.802030001674794,35.22607998700164
3000,554.0,ירושלים,"מעגלי הרי""ם לוין,27","מעגלי הרי""ם לוין,27, ירושלים",31.803299985734427,35.21664003618835
3000,555.0,ירושלים,"נטר,1","נטר,1, ירושלים",31.79494036102758,35.22498847252914
3000,556.0,ירושלים,"ככר ארן זלמן,7","ככר ארן זלמן,7, ירושלים",31.802030001674794,35.22607998700164
3000,557.0,ירושלים,"נטר,1","נטר,1, ירושלים",31.79494036102758,35.22498847252914
3000,558.0,ירושלים,"נטר,1","נטר,1, ירושלים",31.79494036102758,35.22498847252914
3000,559.0,ירושלים,"מעגלי הרי""ם לוין,27","מעגלי הרי""ם לוין,27, ירושלים",31.803299985734427,35.21664003618835
3000,560.0,ירושלים,"לוחמי הגטאות,7","לוחמי הגטאות,7, ירושלים",31.80145001588457,35.239400004613856
3000,561.0,ירושלים,"ההגנה,11","ההגנה,11, ירושלים",31.80358999958429,35.23757995815836
3000,562.0,ירושלים,"ההגנה,13","ההגנה,13, ירושלים",31.803751108287027,35.23695456896209
3000,563.0,ירושלים,"ככר ארן זלמן,11","ככר ארן זלמן,11, ירושלים",31.801852760941777,35.22703264810449
3000,564.0,ירושלים,"מעגלי הרי""ם לוין,27","מעגלי הרי""ם לוין,27, ירושלים",31.803299985734427,35.21664003618835
3000,565.0,ירושלים,"אצ""ל,20","אצ""ל,20, ירושלים",31.801370010618754,35.23454998397946
3000,566.0,ירושלים,"אצ""ל,20","אצ""ל,20, ירושלים",31.801370010618754,35.23454998397946
3000,567.0,ירושלים,"הגננת,29","הגננת,29, ירושלים",31.732353373504885,35.194339204655066
3000,568.0,ירושלים,"ככר ארן זלמן,7","ככר ארן זלמן,7, ירושלים",31.802030001674794,35.22607998700164
3000,569.0,ירושלים,"נטר,1","נטר,1, ירושלים",31.79494036102758,35.22498847252914
3000,570.0,ירושלים,שייח' ג'ראח,"שייח' ג'ראח, ירושלים",31.7776200701118,35.249842849110415
3000,571.0,ירושלים,שייח' ג'ראח,"שייח' ג'ראח, ירושלים",31.7776200701118,35.249842849110415
3000,572.0,ירושלים,"בלבן מאיר,6","בלבן מאיר,6, ירושלים",31.844099989088292,35.241969979946475
3000,573.0,ירושלים,"שד נוה יעקב,38","שד נוה יעקב,38, ירושלים",31.837909995502756,35.24002001399174
3000,574.0,ירושלים,"שד נוה יעקב,36","שד נוה יעקב,36, ירושלים",31.837749984971126,35.23934996465192
3000,575.0,ירושלים,"שד נוה יעקב,38ב","שד נוה יעקב,38ב, ירושלים",31.837909995502756,35.24002001399174
3000,576.0,ירושלים,"בלבן מאיר,6","בלבן מאיר,6, ירושלים",31.844099989088292,35.241969979946475
3000,577.0,ירושלים,"מינץ,45","מינץ,45, ירושלים",31.824430009268426,35.190239974851835
3000,578.0,ירושלים,"מעוז,1","מעוז,1, ירושלים",31.817443831373105,35.202053485537526
3000,579.0,ירושלים,"בובליק גדליה,26","בובליק גדליה,26, ירושלים",31.814539992164143,35.20260998755816
3000,580.0,ירושלים,שייח' ג'ראח,"שייח' ג'ראח, ירושלים",31.7776200701118,35.249842849110415
3000,581.0,ירושלים,"גריק פטריאכט,26","גריק פטריאכט,26, ירושלים",31.780030000000068,35.21873000000005
3000,582.0,ירושלים,שייח' ג'ראח,"שייח' ג'ראח, ירושלים",31.7776200701118,35.249842849110415
3000,583.0,ירושלים,שייח' ג'ראח,"שייח' ג'ראח, ירושלים",31.7776200701118,35.249842849110415
3000,584.0,ירושלים,שייח' ג'ראח,"שייח' ג'ראח, ירושלים",31.7776200701118,35.249842849110415
3000,585.0,ירושלים,שייח' ג'ראח,"שייח' ג'ראח, ירושלים",31.7776200701118,35.249842849110415
3000,586.0,ירושלים,שייח' ג'ראח,"שייח' ג'ראח, ירושלים",31.7776200701118,35.249842849110415
3000,587.0,ירושלים,"קדושי בבל,22","קדושי בבל,22, ירושלים",31.747829901886366,35.238128016527114
3000,588.0,ירושלים,"מירסקי יצחק,10","מירסקי יצחק,10, ירושלים",31.820100001907022,35.19344999231092
3000,589.0,ירושלים,"הרואה,21","הרואה,21, ירושלים",31.817799369820353,35.19774887169222
3000,590.0,ירושלים,"קדושי בבל,1","קדושי בבל,1, ירושלים",31.750349994632572,35.23793996089972
3000,591.0,ירושלים,"קדושי בבל,1","קדושי בבל,1, ירושלים",31.750349994632572,35.23793996089972
3000,592.0,ירושלים,"רזיאל דוד,29","רזיאל דוד,29, ירושלים",31.7471156301891,35.23125223472769
3000,593.0,ירושלים,"רזיאל דוד,13","רזיאל דוד,13, ירושלים",31.74634163937771,35.23153822133873
3000,594.0,ירושלים,"מבוא נטף,4","מבוא נטף,4, ירושלים",31.73490637336582,35.198818702606204
3000,595.0,ירושלים,"ורדינון,1","ורדינון,1, ירושלים",31.734914819205834,35.19881103081715
3000,596.0,ירושלים,"מבוא נטף,4","מבוא נטף,4, ירושלים",31.73490637336582,35.198818702606204
3000,597.0,ירושלים,"ורדינון,12","ורדינון,12, ירושלים",31.73506466883948,35.19819540407275
3000,598.0,ירושלים,"ורדינון,12","ורדינון,12, ירושלים",31.73506466883948,35.19819540407275
3000,599.0,ירושלים,"הגננת,29","הגננת,29, ירושלים",31.732353373504885,35.194339204655066
3000,600.0,ירושלים,"ורדינון,1","ורדינון,1, ירושלים",31.734914819205834,35.19881103081715
3000,601.0,ירושלים,שייח' ג'ראח,"שייח' ג'ראח, ירושלים",31.7776200701118,35.249842849110415
3000,602.0,ירושלים,שייח' ג'ראח,"שייח' ג'ראח, ירושלים",31.7776200701118,35.249842849110415
3000,603.0,ירושלים,שייח' ג'ראח,"שייח' ג'ראח, ירושלים",31.7776200701118,35.249842849110415
3000,604.0,ירושלים,שייח' ג'ראח,"שייח' ג'ראח, ירושלים",31.7776200701118,35.249842849110415
3000,605.0,ירושלים,שייח' ג'ראח,"שייח' ג'ראח, ירושלים",31.7776200701118,35.249842849110415
3000,606.0,ירושלים,שייח' ג'ראח,"שייח' ג'ראח, ירושלים",31.7776200701118,35.249842849110415
3000,607.0,ירושלים,שייח' ג'ראח,"שייח' ג'ראח, ירושלים",31.7776200701118,35.249842849110415
3000,608.0,ירושלים,שייח' ג'ראח,"שייח' ג'ראח, ירושלים",31.7776200701118,35.249842849110415
3000,609.0,ירושלים,שייח' ג'ראח,"שייח' ג'ראח, ירושלים",31.7776200701118,35.249842849110415
3000,610.0,ירושלים,שייח' ג'ראח,"שייח' ג'ראח, ירושלים",31.7776200701118,35.249842849110415
3000,611.0,ירושלים,שייח' ג'ראח,"שייח' ג'ראח, ירושלים",31.7776200701118,35.249842849110415
3000,612.0,ירושלים,שייח' ג'ראח,"שייח' ג'ראח, ירושלים",31.7776200701118,35.249842849110415
3000,613.0,ירושלים,"אדם,28","אדם,28, ירושלים",31.749861998061817,35.22889298276844
3000,614.0,ירושלים,שייח' ג'ראח,"שייח' ג'ראח, ירושלים",31.7776200701118,35.249842849110415
3000,615.0,ירושלים,"אצ""ל,20","אצ""ל,20, ירושלים",31.801370010618754,35.23454998397946
3000,616.0,ירושלים,שייח' ג'ראח,"שייח' ג'ראח, ירושלים",31.7776200701118,35.249842849110415
3000,618.0,ירושלים,שייח' ג'ראח,"שייח' ג'ראח, ירושלים",31.7776200701118,35.249842849110415
3000,619.0,ירושלים,שייח' ג'ראח,"שייח' ג'ראח, ירושלים",31.7776200701118,35.249842849110415
3000,620.0,ירושלים,שייח' ג'ראח,"שייח' ג'ראח, ירושלים",31.7776200701118,35.249842849110415
3000,621.0,ירושלים,שייח' ג'ראח,"שייח' ג'ראח, ירושלים",31.7776200701118,35.249842849110415
3000,622.0,ירושלים,שייח' ג'ראח,"שייח' ג'ראח, ירושלים",31.7776200701118,35.249842849110415
3000,623.0,ירושלים,ירושלים,"ירושלים, ירושלים",31.780030000000068,35.21873000000005
3000,624.0,ירושלים,שייח' ג'ראח,"שייח' ג'ראח, ירושלים",31.7776200701118,35.249842849110415
3000,625.0,ירושלים,"גריק פטריאכט,26","גריק פטריאכט,26, ירושלים",31.780030000000068,35.21873000000005
3000,626.0,ירושלים,שייח' ג'ראח,"שייח' ג'ראח, ירושלים",31.7776200701118,35.249842849110415
3000,627.0,ירושלים,שייח' ג'ראח,"שייח' ג'ראח, ירושלים",31.7776200701118,35.249842849110415
3000,628.0,ירושלים,שייח' ג'ראח,"שייח' ג'ראח, ירושלים",31.7776200701118,35.249842849110415
3000,629.0,ירושלים,צור בחר,"צור בחר, ירושלים",31.75058096784882,35.165524190899184
3000,630.0,ירושלים,צור בחר,"צור בחר, ירושלים",31.75058096784882,35.165524190899184
3000,631.0,ירושלים,בית צפפה,"בית צפפה, ירושלים",31.79368005450521,35.20418511480287
3000,632.0,ירושלים,שייח' ג'ראח,"שייח' ג'ראח, ירושלים",31.7776200701118,35.249842849110415
3000,633.0,ירושלים,שייח' ג'ראח,"שייח' ג'ראח, ירושלים",31.7776200701118,35.249842849110415
3000,634.0,ירושלים,"קדושי בבל,22","קדושי בבל,22, ירושלים",31.747829901886366,35.238128016527114
3000,635.0,ירושלים,"קדושי בבל,22","קדושי בבל,22, ירושלים",31.747829901886366,35.238128016527114
3000,636.0,ירושלים,צור בחר,"צור בחר, ירושלים",31.75058096784882,35.165524190899184
3000,637.0,ירושלים,"קדושי בבל,22","קדושי בבל,22, ירושלים",31.747829901886366,35.238128016527114
3000,638.0,ירושלים,"קדושי בבל,22","קדושי בבל,22, ירושלים",31.747829901886366,35.238128016527114
3000,639.0,ירושלים,"רזיאל דוד,13","רזיאל דוד,13, ירושלים",31.74634163937771,35.23153822133873
3000,640.0,ירושלים,"אדם,28","אדם,28, ירושלים",31.749861998061817,35.22889298276844
3000,641.0,ירושלים,"רזיאל דוד,29","רזיאל דוד,29, ירושלים",31.7471156301891,35.23125223472769
3000,642.0,ירושלים,"אדם,28","אדם,28, ירושלים",31.749861998061817,35.22889298276844
3000,643.0,ירושלים,"קדושי בבל,22","קדושי בבל,22, ירושלים",31.747829901886366,35.238128016527114
3000,644.0,ירושלים,"אדם,28","אדם,28, ירושלים",31.749861998061817,35.22889298276844
3000,645.0,ירושלים,שייח' ג'ראח,"שייח' ג'ראח, ירושלים",31.7776200701118,35.249842849110415
3000,646.0,ירושלים,שייח' ג'ראח,"שייח' ג'ראח, ירושלים",31.7776200701118,35.249842849110415
3000,647.0,ירושלים,שייח' ג'ראח,"שייח' ג'ראח, ירושלים",31.7776200701118,35.249842849110415
3000,648.0,ירושלים,שייח' ג'ראח,"שייח' ג'ראח, ירושלים",31.7776200701118,35.249842849110415
3000,649.0,ירושלים,"רזיאל דוד,13","רזיאל דוד,13, ירושלים",31.74634163937771,35.23153822133873
3000,650.0,ירושלים,"מעגלות הרב פרדס,39","מעגלות הרב פרדס,39, ירושלים",31.838669982663674,35.245560032895554
3000,651.0,ירושלים,"שד נוה יעקב,38","שד נוה יעקב,38, ירושלים",31.837909995502756,35.24002001399174
3000,652.0,ירושלים,שייח' ג'ראח,"שייח' ג'ראח, ירושלים",31.7776200701118,35.249842849110415
3000,653.0,ירושלים,שייח' ג'ראח,"שייח' ג'ראח, ירושלים",31.7776200701118,35.249842849110415
3000,654.0,ירושלים,שייח' ג'ראח,"שייח' ג'ראח, ירושלים",31.7776200701118,35.249842849110415
3000,655.0,ירושלים,שייח' ג'ראח,"שייח' ג'ראח, ירושלים",31.7776200701118,35.249842849110415
3000,656.0,ירושלים,שייח' ג'ראח,"שייח' ג'ראח, ירושלים",31.7776200701118,35.249842849110415
3000,657.0,ירושלים,שייח' ג'ראח,"שייח' ג'ראח, ירושלים",31.7776200701118,35.249842849110415
3000,658.1,ירושלים,"מעוז,1","מעוז,1, ירושלים",31.817443831373105,35.202053485537526
3000,658.2,ירושלים,"מעוז,1","מעוז,1, ירושלים",31.817443831373105,35.202053485537526
3000,659.0,ירושלים,"צונדק,26","צונדק,26, ירושלים",31.812209990719424,35.19711003415151
3000,660.0,ירושלים,"צונדק,26","צונדק,26, ירושלים",31.812209990719424,35.19711003415151
3000,661.0,ירושלים,"גריק פטריאכט,26","גריק פטריאכט,26, ירושלים",31.780030000000068,35.21873000000005
3000,662.0,ירושלים,"גריק פטריאכט,26","גריק פטריאכט,26, ירושלים",31.780030000000068,35.21873000000005
3000,663.0,ירושלים,שייח' ג'ראח,"שייח' ג'ראח, ירושלים",31.7776200701118,35.249842849110415
3000,664.0,ירושלים,"גריק פטריאכט,26","גריק פטריאכט,26, ירושלים",31.780030000000068,35.21873000000005
3000,665.0,ירושלים,"גריק פטריאכט,26","גריק פטריאכט,26, ירושלים",31.780030000000068,35.21873000000005
3000,666.0,ירושלים,שייח' ג'ראח,"שייח' ג'ראח, ירושלים",31.7776200701118,35.249842849110415
3000,667.0,ירושלים,"גריק פטריאכט,26","גריק פטריאכט,26, ירושלים",31.780030000000068,35.21873000000005
3000,668.0,ירושלים,"גריק פטריאכט,26","גריק פטריאכט,26, ירושלים",31.780030000000068,35.21873000000005
3000,669.0,ירושלים,"אידלזון אברהם,30","אידלזון אברהם,30, ירושלים",31.818950004791347,35.19063995927135
3000,670.0,ירושלים,צור בחר,"צור בחר, ירושלים",31.75058096784882,35.165524190899184
3000,671.0,ירושלים,"אסירי ציון,2","אסירי ציון,2, ירושלים",31.812196678867085,35.196035106710504
3000,672.0,ירושלים,"צונדק,26","צונדק,26, ירושלים",31.812209990719424,35.19711003415151
3000,673.0,ירושלים,"הגננת,29","הגננת,29, ירושלים",31.732353373504885,35.194339204655066
3000,674.0,ירושלים,"הגננת,29","הגננת,29, ירושלים",31.732353373504885,35.194339204655066
3000,675.0,ירושלים,"הגננת,29","הגננת,29, ירושלים",31.732353373504885,35.194339204655066
3000,676.0,ירושלים,"מרגלית,411","מרגלית,411, ירושלים",31.734164741087238,35.17999461285409
3000,677.0,ירושלים,"הדולב,423","הדולב,423, ירושלים",31.7335429800086,35.1892257230029
3000,678.0,ירושלים,"תירוש,9","תירוש,9, ירושלים",31.735651019847065,35.178903987959224
3000,679.0,ירושלים,"ורדינון,1","ורדינון,1, ירושלים",31.734914819205834,35.19881103081715
3000,680.0,ירושלים,"ורדינון,12","ורדינון,12, ירושלים",31.73506466883948,35.19819540407275
3000,681.0,ירושלים,"מרגלית,411","מרגלית,411, ירושלים",31.734164741087238,35.17999461285409
3000,682.0,ירושלים,צביה ויצחק,"צביה ויצחק, ירושלים",31.730540695949735,35.189119432962165
3000,683.0,ירושלים,"הדולב,423","הדולב,423, ירושלים",31.7335429800086,35.1892257230029
3000,684.0,ירושלים,"שוהם,526","שוהם,526, ירושלים",31.731880009980813,35.18422000817219
3000,685.0,ירושלים,"שוהם,526","שוהם,526, ירושלים",31.731880009980813,35.18422000817219
3000,686.0,ירושלים,"הדולב,423","הדולב,423, ירושלים",31.7335429800086,35.1892257230029
3000,687.0,ירושלים,"תירוש,9","תירוש,9, ירושלים",31.735651019847065,35.178903987959224
3000,688.0,ירושלים,"הדולב,423","הדולב,423, ירושלים",31.7335429800086,35.1892257230029
3000,689.0,ירושלים,"תירוש,9","תירוש,9, ירושלים",31.735651019847065,35.178903987959224
3000,690.0,ירושלים,"דרך בית לחם,113","דרך בית לחם,113, ירושלים",31.749429996940037,35.21744000502744
3000,691.0,ירושלים,"מרגלית,411","מרגלית,411, ירושלים",31.734164741087238,35.17999461285409
3000,692.0,ירושלים,"הדולב,423","הדולב,423, ירושלים",31.7335429800086,35.1892257230029
3000,693.0,ירושלים,צביה ויצחק,"צביה ויצחק, ירושלים",31.730540695949735,35.189119432962165
3000,694.0,ירושלים,"מעגלות הרב פרדס,39","מעגלות הרב פרדס,39, ירושלים",31.838669982663674,35.245560032895554
3000,696.0,ירושלים,צור בחר,"צור בחר, ירושלים",31.75058096784882,35.165524190899184
3000,697.0,ירושלים,"הרב פניז'ל,2","הרב פניז'ל,2, ירושלים",31.842710018084716,35.245609989038485
3000,698.0,ירושלים,"שד נוה יעקב,38ב","שד נוה יעקב,38ב, ירושלים",31.837909995502756,35.24002001399174
3000,699.0,ירושלים,"מעגלות הרב פרדס,39","מעגלות הרב פרדס,39, ירושלים",31.838669982663674,35.245560032895554
3000,700.0,ירושלים,"בלבן מאיר,6","בלבן מאיר,6, ירושלים",31.844099989088292,35.241969979946475
3000,701.0,ירושלים,"שד נוה יעקב,38","שד נוה יעקב,38, ירושלים",31.837909995502756,35.24002001399174
3000,702.0,ירושלים,"הרב פניז'ל,2","הרב פניז'ל,2, ירושלים",31.842710018084716,35.245609989038485
3000,703.0,ירושלים,"מעגלות הרב פרדס,39","מעגלות הרב פרדס,39, ירושלים",31.838669982663674,35.245560032895554
3000,704.0,ירושלים,"הרב פניז'ל,2","הרב פניז'ל,2, ירושלים",31.842710018084716,35.245609989038485
3000,705.0,ירושלים,"מעוז,1","מעוז,1, ירושלים",31.817443831373105,35.202053485537526
3000,706.0,ירושלים,"צונדק,1","צונדק,1, ירושלים",31.812991207247318,35.19311475898956
3000,707.0,ירושלים,"מעוז,1","מעוז,1, ירושלים",31.817443831373105,35.202053485537526
3000,708.0,ירושלים,"צונדק,26","צונדק,26, ירושלים",31.812209990719424,35.19711003415151
3000,709.0,ירושלים,"אסירי ציון,2","אסירי ציון,2, ירושלים",31.812196678867085,35.196035106710504
3000,710.0,ירושלים,"בובליק גדליה,26","בובליק גדליה,26, ירושלים",31.814539992164143,35.20260998755816
3000,711.0,ירושלים,"אידלזון אברהם,30","אידלזון אברהם,30, ירושלים",31.818950004791347,35.19063995927135
3000,712.0,ירושלים,"הרב פניז'ל,2","הרב פניז'ל,2, ירושלים",31.842710018084716,35.245609989038485
3000,713.0,ירושלים,"בלבן מאיר,6","בלבן מאיר,6, ירושלים",31.844099989088292,35.241969979946475
3000,714.0,ירושלים,"שד נוה יעקב,36","שד נוה יעקב,36, ירושלים",31.837749984971126,35.23934996465192
3000,715.0,ירושלים,"לוחמי הגטאות,7","לוחמי הגטאות,7, ירושלים",31.80145001588457,35.239400004613856
3000,716.0,ירושלים,"אצ""ל,20","אצ""ל,20, ירושלים",31.801370010618754,35.23454998397946
3000,717.0,ירושלים,"צונדק,1","צונדק,1, ירושלים",31.812991207247318,35.19311475898956
3000,718.0,ירושלים,"מעלות כיסופים,5","מעלות כיסופים,5, ירושלים",31.81636237005784,35.19702477545312
3000,719.0,ירושלים,"רקנטי אברהם,6","רקנטי אברהם,6, ירושלים",31.817005102846547,35.19158555857337
3000,720.0,ירושלים,"השישה עשר,19","השישה עשר,19, ירושלים",31.82785784439225,35.2425230332825
3000,721.0,ירושלים,"השישה עשר,19","השישה עשר,19, ירושלים",31.82785784439225,35.2425230332825
3000,722.0,ירושלים,"השישה עשר,19","השישה עשר,19, ירושלים",31.82785784439225,35.2425230332825
3000,723.0,ירושלים,"השישה עשר,34","השישה עשר,34, ירושלים",31.82881998914705,35.2454199712935
3000,724.0,ירושלים,"השישה עשר,34","השישה עשר,34, ירושלים",31.82881998914705,35.2454199712935
3000,725.0,ירושלים,"השישה עשר,34","השישה עשר,34, ירושלים",31.82881998914705,35.2454199712935
3000,726.0,ירושלים,"חיל האויר,60","חיל האויר,60, ירושלים",31.829619999895627,35.23952003346733
3000,727.0,ירושלים,"השישה עשר,32","השישה עשר,32, ירושלים",31.828639589852575,35.24473866639921
3000,728.0,ירושלים,"חיל האויר,60","חיל האויר,60, ירושלים",31.829619999895627,35.23952003346733
3000,729.0,ירושלים,"מזל טלה,11","מזל טלה,11, ירושלים",31.835838967535405,35.23630664764218
3000,730.0,ירושלים,"תמיר שמואל,74","תמיר שמואל,74, ירושלים",31.781301999829104,35.219366944743975
3000,731.0,ירושלים,"מזל טלה,11","מזל טלה,11, ירושלים",31.835838967535405,35.23630664764218
3000,732.0,ירושלים,"תמיר שמואל,74","תמיר שמואל,74, ירושלים",31.781301999829104,35.219366944743975
3000,733.0,ירושלים,"רחמילביץ משה,1","רחמילביץ משה,1, ירושלים",31.822560055207564,35.251825140527664
3000,734.0,ירושלים,"גרשון מאיר,21","גרשון מאיר,21, ירושלים",31.819410003637614,35.2451000340493
3000,735.0,ירושלים,"טוניק יצחק,21","טוניק יצחק,21, ירושלים",31.820654677587587,35.252689684855326
3000,736.0,ירושלים,"גרשון מאיר,21","גרשון מאיר,21, ירושלים",31.819410003637614,35.2451000340493
3000,737.0,ירושלים,"רחמילביץ משה,1","רחמילביץ משה,1, ירושלים",31.822560055207564,35.251825140527664
3000,738.0,ירושלים,"גרשון מאיר,26","גרשון מאיר,26, ירושלים",31.819069991735304,35.24674003722461
3000,739.0,ירושלים,"טוניק יצחק,21","טוניק יצחק,21, ירושלים",31.820654677587587,35.252689684855326
3000,740.0,ירושלים,"גרשון מאיר,21","גרשון מאיר,21, ירושלים",31.819410003637614,35.2451000340493
3000,741.0,ירושלים,שייח' ג'ראח,"שייח' ג'ראח, ירושלים",31.7776200701118,35.249842849110415
3000,742.0,ירושלים,שייח' ג'ראח,"שייח' ג'ראח, ירושלים",31.7776200701118,35.249842849110415
3000,743.0,ירושלים,"גרשון מאיר,26","גרשון מאיר,26, ירושלים",31.819069991735304,35.24674003722461
3000,744.0,ירושלים,"טוניק יצחק,21","טוניק יצחק,21, ירושלים",31.820654677587587,35.252689684855326
3000,745.0,ירושלים,"מזל דלי,21","מזל דלי,21, ירושלים",31.834097213095117,35.23394891708503
3000,746.0,ירושלים,"מזל דלי,21","מזל דלי,21, ירושלים",31.834097213095117,35.23394891708503
3000,747.0,ירושלים,"נדבה יוסף,47","נדבה יוסף,47, ירושלים",31.815850375743864,35.25194237175201
3000,748.0,ירושלים,"גרשון מאיר,26","גרשון מאיר,26, ירושלים",31.819069991735304,35.24674003722461
3000,749.0,ירושלים,"נדבה יוסף,47","נדבה יוסף,47, ירושלים",31.815850375743864,35.25194237175201
3000,750.0,ירושלים,"גרשון מאיר,26","גרשון מאיר,26, ירושלים",31.819069991735304,35.24674003722461
3000,751.0,ירושלים,"נדבה יוסף,47","נדבה יוסף,47, ירושלים",31.815850375743864,35.25194237175201
3000,752.0,ירושלים,"טוניק יצחק,21","טוניק יצחק,21, ירושלים",31.820654677587587,35.252689684855326
3000,753.0,ירושלים,"טוניק יצחק,21","טוניק יצחק,21, ירושלים",31.820654677587587,35.252689684855326
3000,754.0,ירושלים,"טוניק יצחק,21","טוניק יצחק,21, ירושלים",31.820654677587587,35.252689684855326
3000,755.0,ירושלים,"רחמילביץ משה,1","רחמילביץ משה,1, ירושלים",31.822560055207564,35.251825140527664
3000,756.0,ירושלים,"תמיר שמואל,74","תמיר שמואל,74, ירושלים",31.781301999829104,35.219366944743975
3000,757.0,ירושלים,"השישה עשר,19","השישה עשר,19, ירושלים",31.82785784439225,35.2425230332825
3000,758.0,ירושלים,"מזל טלה,11","מזל טלה,11, ירושלים",31.835838967535405,35.23630664764218
3000,759.0,ירושלים,"השישה עשר,32","השישה עשר,32, ירושלים",31.828639589852575,35.24473866639921
3000,760.0,ירושלים,"שד נוה יעקב,38","שד נוה יעקב,38, ירושלים",31.837909995502756,35.24002001399174
3000,761.0,ירושלים,"בלבן מאיר,6","בלבן מאיר,6, ירושלים",31.844099989088292,35.241969979946475
3000,762.0,ירושלים,"מעגלות הרב פרדס,39","מעגלות הרב פרדס,39, ירושלים",31.838669982663674,35.245560032895554
3000,763.0,ירושלים,"מזל טלה,11","מזל טלה,11, ירושלים",31.835838967535405,35.23630664764218
3000,764.0,ירושלים,"רחמילביץ משה,1","רחמילביץ משה,1, ירושלים",31.822560055207564,35.251825140527664
3000,765.0,ירושלים,"מזל דלי,21","מזל דלי,21, ירושלים",31.834097213095117,35.23394891708503
3000,766.0,ירושלים,"מזל דלי,21","מזל דלי,21, ירושלים",31.834097213095117,35.23394891708503
3000,767.0,ירושלים,"צונדק,1","צונדק,1, ירושלים",31.812991207247318,35.19311475898956
3000,768.0,ירושלים,"קורן אליהו,18","קורן אליהו,18, ירושלים",31.722247855622562,35.2241617127495
3000,769.0,ירושלים,"אידלזון אברהם,30","אידלזון אברהם,30, ירושלים",31.818950004791347,35.19063995927135
3000,770.0,ירושלים,"חיל האויר,60","חיל האויר,60, ירושלים",31.829619999895627,35.23952003346733
3000,771.0,ירושלים,"הרואה,21","הרואה,21, ירושלים",31.817799369820353,35.19774887169222
3000,772.0,ירושלים,"מירסקי יצחק,10","מירסקי יצחק,10, ירושלים",31.820100001907022,35.19344999231092
3000,773.0,ירושלים,"בובליק גדליה,26","בובליק גדליה,26, ירושלים",31.814539992164143,35.20260998755816
3000,774.0,ירושלים,"בובליק גדליה,26","בובליק גדליה,26, ירושלים",31.814539992164143,35.20260998755816
3000,775.1,ירושלים,"מירסקי יצחק,10","מירסקי יצחק,10, ירושלים",31.820100001907022,35.19344999231092
3000,775.2,ירושלים,"מירסקי יצחק,10","מירסקי יצחק,10, ירושלים",31.820100001907022,35.19344999231092
3000,776.0,ירושלים,"מעוז,1","מעוז,1, ירושלים",31.817443831373105,35.202053485537526
3000,777.0,ירושלים,"מעלות כיסופים,5","מעלות כיסופים,5, ירושלים",31.81636237005784,35.19702477545312
3000,778.0,ירושלים,"אידלזון אברהם,30","אידלזון אברהם,30, ירושלים",31.818950004791347,35.19063995927135
3000,779.0,ירושלים,"שד גולדה מאיר,474","שד גולדה מאיר,474, ירושלים",31.80202865379326,35.205029197345546
3000,780.0,ירושלים,"אסירי ציון,2","אסירי ציון,2, ירושלים",31.812196678867085,35.196035106710504
3000,781.0,ירושלים,"אסירי ציון,2","אסירי ציון,2, ירושלים",31.812196678867085,35.196035106710504
3000,782.0,ירושלים,"צונדק,1","צונדק,1, ירושלים",31.812991207247318,35.19311475898956
3000,783.0,ירושלים,"שד גולדה מאיר,474","שד גולדה מאיר,474, ירושלים",31.80202865379326,35.205029197345546
3000,784.0,ירושלים,"שד גולדה מאיר,474","שד גולדה מאיר,474, ירושלים",31.80202865379326,35.205029197345546
3000,785.0,ירושלים,"מינץ,45","מינץ,45, ירושלים",31.824430009268426,35.190239974851835
3000,786.0,ירושלים,"רקנטי אברהם,345","רקנטי אברהם,345, ירושלים",31.820100001907022,35.18806000947396
3000,787.0,ירושלים,"רקנטי אברהם,345","רקנטי אברהם,345, ירושלים",31.820100001907022,35.18806000947396
3000,788.0,ירושלים,"אידלזון אברהם,30","אידלזון אברהם,30, ירושלים",31.818950004791347,35.19063995927135
3000,789.0,ירושלים,"צונדק,26","צונדק,26, ירושלים",31.812209990719424,35.19711003415151
3000,790.0,ירושלים,"נדבה יוסף,47","נדבה יוסף,47, ירושלים",31.815850375743864,35.25194237175201
3000,791.0,ירושלים,"מינץ,45","מינץ,45, ירושלים",31.824430009268426,35.190239974851835
3000,792.0,ירושלים,"מעגלות הרב פרדס,39","מעגלות הרב פרדס,39, ירושלים",31.838669982663674,35.245560032895554
3000,793.0,ירושלים,"אביגור שאול,7","אביגור שאול,7, ירושלים",31.723133824327913,35.21962398841003
3000,794.0,ירושלים,הרב בינה אריה,"הרב בינה אריה, ירושלים",31.723824111355754,35.21686998030444
3000,795.0,ירושלים,"מעלות כיסופים,5","מעלות כיסופים,5, ירושלים",31.81636237005784,35.19702477545312
3000,796.0,ירושלים,"בית""ר,8","בית""ר,8, ירושלים",31.75345172392508,35.22437829439937
3000,797.0,ירושלים,"טוניק יצחק,21","טוניק יצחק,21, ירושלים",31.820654677587587,35.252689684855326
3000,799.0,ירושלים,צור בחר,"צור בחר, ירושלים",31.75058096784882,35.165524190899184
3000,800.0,ירושלים,"קהילות יעקב,15","קהילות יעקב,15, ירושלים",31.813109997572894,35.21829001382844
3000,801.0,ירושלים,"קהילות יעקב,15","קהילות יעקב,15, ירושלים",31.813109997572894,35.21829001382844
3000,802.0,ירושלים,"קהילות יעקב,10","קהילות יעקב,10, ירושלים",31.812250014307097,35.21652998179968
3000,803.0,ירושלים,"הרב קלכהיים עוזי,1","הרב קלכהיים עוזי,1, ירושלים",31.810669983649007,35.22121001743767
3000,804.0,ירושלים,אגרות משה,"אגרות משה, ירושלים",31.809031291273204,35.22318144516115
3000,805.0,ירושלים,"קהילות יעקב,15","קהילות יעקב,15, ירושלים",31.813109997572894,35.21829001382844
3000,806.0,ירושלים,"הרב קלכהיים עוזי,1","הרב קלכהיים עוזי,1, ירושלים",31.810669983649007,35.22121001743767
3000,807.0,ירושלים,אגרות משה,"אגרות משה, ירושלים",31.809031291273204,35.22318144516115
3000,808.0,ירושלים,אגרות משה,"אגרות משה, ירושלים",31.809031291273204,35.22318144516115
3000,809.0,ירושלים,"חזון איש,62","חזון איש,62, ירושלים",31.809943626451314,35.21849532446552
3000,810.0,ירושלים,"חזון איש,62","חזון איש,62, ירושלים",31.809943626451314,35.21849532446552
3000,811.0,ירושלים,"קהילות יעקב,10","קהילות יעקב,10, ירושלים",31.812250014307097,35.21652998179968
3000,812.0,ירושלים,"קהילות יעקב,10","קהילות יעקב,10, ירושלים",31.812250014307097,35.21652998179968
3000,813.0,ירושלים,"הלל,17","הלל,17, ירושלים",31.78049999372125,35.217379990600705
3000,814.0,ירושלים,"התומר,5","התומר,5, ירושלים",31.779056617026193,35.18587334836339
3000,815.0,ירושלים,"גרינולד,8","גרינולד,8, ירושלים",31.757010003438694,35.175859981764035
3000,816.0,ירושלים,"זנגויל,29","זנגויל,29, ירושלים",31.780030000000068,35.21873000000005
3000,817.0,ירושלים,"שד שרת משה,1","שד שרת משה,1, ירושלים",31.756740866761092,35.185910443897214
3000,818.0,ירושלים,"אליעזר הגדול,4","אליעזר הגדול,4, ירושלים",31.754729092671983,35.205124184477256
3000,819.0,ירושלים,"גנרל קניג פייר,16","גנרל קניג פייר,16, ירושלים",31.754534967132614,35.214293096202255
3000,820.0,ירושלים,"הגננת,29","הגננת,29, ירושלים",31.732353373504885,35.194339204655066
3000,821.0,ירושלים,"הגננת,29","הגננת,29, ירושלים",31.732353373504885,35.194339204655066
3000,822.0,ירושלים,בתי מחסה,"בתי מחסה, ירושלים",31.774237441010236,35.233008229360564
3000,823.0,ירושלים,"מבוא נטף,4","מבוא נטף,4, ירושלים",31.73490637336582,35.198818702606204
3000,824.0,ירושלים,"ורדינון,1","ורדינון,1, ירושלים",31.734914819205834,35.19881103081715
3000,825.0,ירושלים,"מבוא נטף,4","מבוא נטף,4, ירושלים",31.73490637336582,35.198818702606204
3000,826.0,ירושלים,"הדולב,423","הדולב,423, ירושלים",31.7335429800086,35.1892257230029
3000,830.0,ירושלים,"תירוש,9","תירוש,9, ירושלים",31.735651019847065,35.178903987959224
3000,831.0,ירושלים,"תירוש,9","תירוש,9, ירושלים",31.735651019847065,35.178903987959224
3000,849.0,ירושלים,"ויטל חיים,32","ויטל חיים,32, ירושלים",31.789229997335568,35.191600022461074
3000,850.0,ירושלים,"אביגור שאול,9","אביגור שאול,9, ירושלים",31.723510009107883,35.22017996535644
3000,851.0,ירושלים,"אביגור שאול,9","אביגור שאול,9, ירושלים",31.723510009107883,35.22017996535644
3000,852.0,ירושלים,"אביגור שאול,9","אביגור שאול,9, ירושלים",31.723510009107883,35.22017996535644
3000,853.0,ירושלים,"הרב ניסים יצחק,3","הרב ניסים יצחק,3, ירושלים",31.72607000997573,35.223909996088565
3000,854.0,ירושלים,"אביגור שאול,7","אביגור שאול,7, ירושלים",31.723133824327913,35.21962398841003
3000,855.0,ירושלים,"הרב ניסים יצחק,3","הרב ניסים יצחק,3, ירושלים",31.72607000997573,35.223909996088565
3000,856.0,ירושלים,"הרב ניסים יצחק,3","הרב ניסים יצחק,3, ירושלים",31.72607000997573,35.223909996088565
3000,857.0,ירושלים,"אביגור שאול,9","אביגור שאול,9, ירושלים",31.723510009107883,35.22017996535644
3000,858.0,ירושלים,"אביגור שאול,9","אביגור שאול,9, ירושלים",31.723510009107883,35.22017996535644
3000,859.0,ירושלים,הרב בינה אריה,"הרב בינה אריה, ירושלים",31.723824111355754,35.21686998030444
3000,860.0,ירושלים,"קורן אליהו,18","קורן אליהו,18, ירושלים",31.722247855622562,35.2241617127495
3000,861.0,ירושלים,"נטר,1","נטר,1, ירושלים",31.79494036102758,35.22498847252914
3000,862.0,ירושלים,"יוסי בן יועזר,24","יוסי בן יועזר,24, ירושלים",31.754899985042826,35.20658996664295
3000,863.0,ירושלים,"אדם,28","אדם,28, ירושלים",31.749861998061817,35.22889298276844
3000,864.0,ירושלים,"קורן אליהו,18","קורן אליהו,18, ירושלים",31.722247855622562,35.2241617127495
3000,870.0,ירושלים,"בית""ר,8","בית""ר,8, ירושלים",31.75345172392508,35.22437829439937
3000,950.0,ירושלים,"נג'ארה,27","נג'ארה,27, ירושלים",31.780030000000068,35.21873000000005
3000,951.0,ירושלים,"הפסגה,24","הפסגה,24, ירושלים",31.76823999349412,35.18262996113981
3000,952.0,ירושלים,"בן לברט,15","בן לברט,15, ירושלים",31.77084792414749,35.209983109742275
3000,953.0,ירושלים,"בן לברט,15","בן לברט,15, ירושלים",31.77084792414749,35.209983109742275
3000,954.0,ירושלים,"המעיין,2","המעיין,2, ירושלים",31.766900020542977,35.16203998362741
3000,956.0,ירושלים,"שמואל הנביא,83א","שמואל הנביא,83א, ירושלים",31.79482022561532,35.220462028851465
3000,957.0,ירושלים,"המ""ג,1","המ""ג,1, ירושלים",31.790854732368246,35.19988054035529
3000,958.0,ירושלים,"נחשון,11","נחשון,11, ירושלים",31.764431748569216,35.22625630315268
3000,959.0,ירושלים,"הרב ניסים יצחק,3","הרב ניסים יצחק,3, ירושלים",31.72607000997573,35.223909996088565
3000,960.0,ירושלים,"בית""ר,8","בית""ר,8, ירושלים",31.75345172392508,35.22437829439937
3000,964.0,ירושלים,"תירוש,9","תירוש,9, ירושלים",31.735651019847065,35.178903987959224
3000,965.0,ירושלים,"בית""ר,8","בית""ר,8, ירושלים",31.75345172392508,35.22437829439937
3000,966.0,ירושלים,"רבי עקיבא,11","רבי עקיבא,11, ירושלים",31.77962692062221,35.21819785575132
3000,967.0,ירושלים,"מוצא תחתית,1א","מוצא תחתית,1א, ירושלים",31.795670023092853,35.168350047975935
3000,968.0,ירושלים,"חיל האויר,60","חיל האויר,60, ירושלים",31.829619999895627,35.23952003346733
3000,969.0,ירושלים,"רחמילביץ משה,1","רחמילביץ משה,1, ירושלים",31.822560055207564,35.251825140527664
3000,970.0,ירושלים,"בית הערבה,7","בית הערבה,7, ירושלים",31.749988413140102,35.221522849270926
3000,971.0,ירושלים,"מוצא תחתית,1א","מוצא תחתית,1א, ירושלים",31.795670023092853,35.168350047975935
3000,972.0,ירושלים,"החלוץ,47","החלוץ,47, ירושלים",31.776659992419496,35.19078999533821
3000,973.0,ירושלים,"חכמי יוסף,28א","חכמי יוסף,28א, ירושלים",31.76213031251948,35.1908487200343
3000,974.0,ירושלים,"חזון איש,62","חזון איש,62, ירושלים",31.809943626451314,35.21849532446552
3000,990.0,ירושלים,"רבי עקיבא,7","רבי עקיבא,7, ירושלים",31.77962692062221,35.21819785575132
3000,991.0,ירושלים,שייח' ג'ראח,"שייח' ג'ראח, ירושלים",31.7776200701118,35.249842849110415
3000,994.0,ירושלים,שייח' ג'ראח,"שייח' ג'ראח, ירושלים",31.7776200701118,35.249842849110415
3000,995.0,ירושלים,שייח' ג'ראח,"שייח' ג'ראח, ירושלים",31.7776200701118,35.249842849110415
3000,996.0,ירושלים,שייח' ג'ראח,"שייח' ג'ראח, ירושלים",31.7776200701118,35.249842849110415
3000,997.0,ירושלים,שייח' ג'ראח,"שייח' ג'ראח, ירושלים",31.7776200701118,35.249842849110415
3000,998.0,ירושלים,שייח' ג'ראח,"שייח' ג'ראח, ירושלים",31.7776200701118,35.249842849110415
1056,1.0,ירושלים,"ירושלים,המעיין,2","ירושלים,המעיין,2, ירושלים",31.766900020542977,35.16203998362741
127,1.0,ירושלים,רמת רחל,"רמת רחל, ירושלים",31.74001000000004,35.220060000000046
472,1.0,יהודה,"אל רשיד,1","אל רשיד,1, יהודה",31.807941061978994,35.1129104729392
472,2.0,יהודה,"אל רשיד,1","אל רשיד,1, יהודה",31.807941061978994,35.1129104729392
472,3.0,יהודה,דרך השלום,"דרך השלום, יהודה",32.036749754381795,34.8954678665494
472,4.0,יהודה,"התמר,2","התמר,2, יהודה",32.02798000165633,34.874229987559005
472,5.0,יהודה,דרך השלום,"דרך השלום, יהודה",32.036749754381795,34.8954678665494
472,6.0,יהודה,"התמר,2","התמר,2, יהודה",32.02798000165633,34.874229987559005
1070,1.0,יהודה,אביעזר,"אביעזר, יהודה",32.03376729536062,34.89535022638212
783,1.0,יהודה,אבן ספיר,"אבן ספיר, יהודה",32.02859678967603,34.87071952864289
3786,1.0,יהודה,"קליה,קליה","קליה,קליה",,
3759,1.0,יהודה,אדורה,"אדורה, יהודה",31.935970000000054,34.83463000000006
1123,1.0,יהודה,אדרת,"אדרת, יהודה",31.935970000000054,34.83463000000006
780,1.0,יהודה,אורה,"אורה, יהודה",31.935970000000054,34.83463000000006
780,2.0,יהודה,אורה,"אורה, יהודה",31.935970000000054,34.83463000000006
886,1.0,יהודה,"צובה,צובה","צובה,צובה",,
3604,1.0,יהודה,מעלה מיכאל,"מעלה מיכאל, יהודה",32.031749152433456,34.85993321151796
3604,2.0,יהודה,מעלה מיכאל,"מעלה מיכאל, יהודה",32.031749152433456,34.85993321151796
3604,3.0,יהודה,מגיני הגוש,מגיני הגוש,,
3556,1.0,יהודה,אלמוג,"אלמוג, יהודה",32.03029064769036,34.868817641183895
3618,1.0,יהודה,"מתתיהו,4","מתתיהו,4, יהודה",31.91768999766451,35.037069998233136
3618,2.0,יהודה,"מתתיהו,4","מתתיהו,4, יהודה",31.91768999766451,35.037069998233136
3754,1.0,יהודה,אספר,"אספר, יהודה",31.935970000000054,34.83463000000006
3650,1.0,יהודה,התאנה,"התאנה, יהודה",32.032607237087674,34.89536752554714
3650,2.0,יהודה,התאנה,"התאנה, יהודה",32.032607237087674,34.89536752554714
3650,3.0,יהודה,שיבת ציון,"שיבת ציון, יהודה",32.033853931889766,34.89373051687936
3650,4.0,יהודה,הגפן,"הגפן, יהודה",32.08732359959856,34.80618737782286
3650,5.0,יהודה,הגפן,"הגפן, יהודה",32.08732359959856,34.80618737782286
3650,6.0,יהודה,זית שמן,"זית שמן, יהודה",32.03159493771474,34.85846714550777
3650,7.0,יהודה,זית שמן,"זית שמן, יהודה",32.03159493771474,34.85846714550777
3650,8.0,יהודה,התאנה,"התאנה, יהודה",32.032607237087674,34.89536752554714
3650,9.0,יהודה,התאנה,"התאנה, יהודה",32.032607237087674,34.89536752554714
740,1.0,יהודה,אשתאול,אשתאול,,
3574,1.0,יהודה,בית אל,"בית אל, יהודה",32.032880000000034,34.889650000000074
3574,2.0,יהודה,מבוא התקומה,מבוא התקומה,,
3574,3.0,יהודה,בית אל,"בית אל, יהודה",32.032880000000034,34.889650000000074
3574,4.0,יהודה,מבוא התקומה,מבוא התקומה,,
3574,5.0,יהודה,בית אל,"בית אל, יהודה",32.032880000000034,34.889650000000074
3645,1.0,יהודה,בית הערבה,"בית הערבה, יהודה",32.036416041738356,34.8825043528242
710,1.0,יהודה,דרך הזיתים,דרך הזיתים,,
710,2.0,יהודה,דרך הזיתים,דרך הזיתים,,
3575,1.0,יהודה,בית חורון,"בית חורון, יהודה",31.88030939542031,35.12406140528288
751,1.0,יהודה,בית מאיר,"בית מאיר, יהודה",32.02925000000005,34.88813000000005
672,1.0,יהודה,בית נקופה,"בית נקופה, יהודה",31.804140000000075,35.12607000000003
2610,1.0,יהודה,"בני דן,2","בני דן,2",,
2610,2.0,יהודה,"המעפילים,2","המעפילים,2, יהודה",32.03046719261629,34.89159142806024
2610,3.0,יהודה,"סמ ויצ""ו,7","סמ ויצ""ו,7",,
2610,4.0,יהודה,"עלית הנוער,2","עלית הנוער,2, יהודה",32.621930000661834,35.33131997814928
2610,5.0,יהודה,"בני דן,2","בני דן,2",,
2610,6.0,יהודה,הרצל,"הרצל, יהודה",32.030719175075205,34.88598646629719
2610,7.0,יהודה,"רביצקי,5","רביצקי,5",,
2610,8.0,יהודה,"רביצקי,5","רביצקי,5",,
2610,9.0,יהודה,הרצל,"הרצל, יהודה",32.030719175075205,34.88598646629719
2610,10.0,יהודה,הרצל,"הרצל, יהודה",32.030719175075205,34.88598646629719
2610,12.0,יהודה,"הנורית,16","הנורית,16, יהודה",32.03828928663862,34.876737910248885
2610,13.0,יהודה,"הנורית,16","הנורית,16, יהודה",32.03828928663862,34.876737910248885
2610,14.0,יהודה,"הנורית,16","הנורית,16, יהודה",32.03828928663862,34.876737910248885
2610,15.0,יהודה,"הנורית,16","הנורית,16, יהודה",32.03828928663862,34.876737910248885
2610,16.0,יהודה,"הרקפת,59","הרקפת,59, יהודה",32.03072771593488,34.864714296577176
2610,17.0,יהודה,"הרקפת,59","הרקפת,59, יהודה",32.03072771593488,34.864714296577176
2610,18.0,יהודה,משעול המתמיד,משעול המתמיד,,
2610,19.0,יהודה,"בן זאב יהודה,3","בן זאב יהודה,3, יהודה",32.07068001482202,34.79790001865379
2610,20.0,יהודה,רזיאל דוד,"רזיאל דוד, יהודה",32.03376729536062,34.89535022638212
2610,21.0,יהודה,"עלית הנוער,2","עלית הנוער,2, יהודה",32.621930000661834,35.33131997814928
2610,22.0,יהודה,"עלית הנוער,2","עלית הנוער,2, יהודה",32.621930000661834,35.33131997814928
2610,23.0,יהודה,רזיאל דוד,"רזיאל דוד, יהודה",32.03376729536062,34.89535022638212
2610,24.0,יהודה,משעול המתמיד,משעול המתמיד,,
2610,25.0,יהודה,"בן זאב יהודה,3","בן זאב יהודה,3, יהודה",32.07068001482202,34.79790001865379
2610,26.0,יהודה,"הגולן,16","הגולן,16, יהודה",32.903296868980995,35.64748597858146
2610,27.0,יהודה,רזיאל דוד,"רזיאל דוד, יהודה",32.03376729536062,34.89535022638212
2610,28.0,יהודה,רזיאל דוד,"רזיאל דוד, יהודה",32.03376729536062,34.89535022638212
2610,29.0,יהודה,משעול המתמיד,משעול המתמיד,,
2610,30.0,יהודה,"נחל עין גדי,39","נחל עין גדי,39, יהודה",31.714682841908516,34.98384821954129
2610,31.0,יהודה,"בן זאב יהודה,3","בן זאב יהודה,3, יהודה",32.07068001482202,34.79790001865379
2610,32.0,יהודה,"הגולן,16א","הגולן,16א, יהודה",32.903296868980995,35.64748597858146
2610,33.0,יהודה,"הגולן,16א","הגולן,16א, יהודה",32.903296868980995,35.64748597858146
2610,34.0,יהודה,"רבנו חיים הלוי,1","רבנו חיים הלוי,1, יהודה",31.74130001186454,34.99613999156102
2610,35.0,יהודה,"הרקפת,59","הרקפת,59, יהודה",32.03072771593488,34.864714296577176
2610,36.0,יהודה,"הרקפת,59","הרקפת,59, יהודה",32.03072771593488,34.864714296577176
2610,37.0,יהודה,"הגפן,32","הגפן,32, יהודה",32.027860014712374,34.87688001006697
2610,38.0,יהודה,"נהר הירקון,40","נהר הירקון,40, יהודה",31.70856734425029,34.99349747088614
2610,39.0,יהודה,"בן זאב יהודה,3","בן זאב יהודה,3, יהודה",32.07068001482202,34.79790001865379
2610,40.0,יהודה,משעול המתמיד,משעול המתמיד,,
2610,41.0,יהודה,"הגולן,16","הגולן,16, יהודה",32.903296868980995,35.64748597858146
2610,42.0,יהודה,"הנורית,16","הנורית,16, יהודה",32.03828928663862,34.876737910248885
2610,43.0,יהודה,הרצל,"הרצל, יהודה",32.030719175075205,34.88598646629719
2610,44.0,יהודה,"הרקפת,59","הרקפת,59, יהודה",32.03072771593488,34.864714296577176
2610,45.0,יהודה,רזיאל דוד,"רזיאל דוד, יהודה",32.03376729536062,34.89535022638212
2610,46.0,יהודה,משעול המתמיד,משעול המתמיד,,
2610,50.0,יהודה,"נחל שורק,13","נחל שורק,13, יהודה",31.760693771000035,34.984619569000074
2610,51.0,יהודה,"נהר הירקון,40","נהר הירקון,40, יהודה",31.70856734425029,34.99349747088614
2610,52.0,יהודה,"נחל דולב,16","נחל דולב,16, יהודה",32.03469998297966,34.8779000038644
2610,53.0,יהודה,"נחל שורק,8","נחל שורק,8, יהודה",31.760693771000035,34.984619569000074
2610,54.0,יהודה,"נחל דולב,16","נחל דולב,16, יהודה",32.03469998297966,34.8779000038644
2610,55.0,יהודה,"רבי מאיר בעל הנס,8","רבי מאיר בעל הנס,8, יהודה",32.65274000000005,35.09912000000003
2610,56.0,יהודה,"האדמו""ר מבעלזא,2","האדמו""ר מבעלזא,2, יהודה",31.732199989134543,34.992230001367744
2610,57.0,יהודה,"נחל רפאים,17","נחל רפאים,17, יהודה",31.709209979376382,34.99781997641446
2610,58.0,יהודה,"ריב""ל,37","ריב""ל,37",,
2610,59.0,יהודה,"נחל דולב,16","נחל דולב,16, יהודה",32.03469998297966,34.8779000038644
2610,60.1,יהודה,"רבי מאיר בעל הנס,8","רבי מאיר בעל הנס,8, יהודה",32.65274000000005,35.09912000000003
2610,60.2,יהודה,"רבי מאיר בעל הנס,8","רבי מאיר בעל הנס,8, יהודה",32.65274000000005,35.09912000000003
2610,61.0,יהודה,"ריב""ל,37","ריב""ל,37",,
2610,62.0,יהודה,"רבי מאיר בעל הנס,8","רבי מאיר בעל הנס,8, יהודה",32.65274000000005,35.09912000000003
2610,63.1,יהודה,"בן עזאי,12","בן עזאי,12",,
2610,63.2,יהודה,"בן עזאי,12","בן עזאי,12",,
2610,64.0,יהודה,"נחל שורק,13","נחל שורק,13, יהודה",31.760693771000035,34.984619569000074
2610,65.0,יהודה,"נחל רפאים,17","נחל רפאים,17, יהודה",31.709209979376382,34.99781997641446
2610,66.0,יהודה,"נחל שורק,8","נחל שורק,8, יהודה",31.760693771000035,34.984619569000074
2610,67.0,יהודה,"האדמו""ר מבעלזא,2","האדמו""ר מבעלזא,2, יהודה",31.732199989134543,34.992230001367744
2610,68.0,יהודה,"רבי מאיר בעל הנס,8","רבי מאיר בעל הנס,8, יהודה",32.65274000000005,35.09912000000003
2610,69.0,יהודה,"נחל דולב,16","נחל דולב,16, יהודה",32.03469998297966,34.8779000038644
2610,70.0,יהודה,"בן עזאי,12","בן עזאי,12",,
2610,71.0,יהודה,"רבי צדקה יהודה,10","רבי צדקה יהודה,10, יהודה",31.744212996144512,34.99897860980729
2610,72.0,יהודה,"נחל שורק,15","נחל שורק,15, יהודה",31.760693771000035,34.984619569000074
2610,73.0,יהודה,"נחל גילה,10","נחל גילה,10, יהודה",31.711302823395275,34.99301266863626
2610,74.0,יהודה,"ריב""ל,37","ריב""ל,37",,
2610,75.0,יהודה,"הגולן,16","הגולן,16, יהודה",32.903296868980995,35.64748597858146
2610,76.0,יהודה,משעול המתמיד,משעול המתמיד,,
2610,77.0,יהודה,"רבי צדקה יהודה,10","רבי צדקה יהודה,10, יהודה",31.744212996144512,34.99897860980729
2610,78.0,יהודה,"האדמו""ר מבעלזא,2","האדמו""ר מבעלזא,2, יהודה",31.732199989134543,34.992230001367744
2610,79.0,יהודה,"רבי צדקה יהודה,10","רבי צדקה יהודה,10, יהודה",31.744212996144512,34.99897860980729
2610,80.0,יהודה,"נחל עין גדי,39","נחל עין גדי,39, יהודה",31.714682841908516,34.98384821954129
2610,81.0,יהודה,"נחל שורק,13","נחל שורק,13, יהודה",31.760693771000035,34.984619569000074
2610,82.0,יהודה,"רבי צדקה יהודה,10","רבי צדקה יהודה,10, יהודה",31.744212996144512,34.99897860980729
2610,83.0,יהודה,"רבנו חיים הלוי,1","רבנו חיים הלוי,1, יהודה",31.74130001186454,34.99613999156102
2610,84.0,יהודה,"האדמו""ר מבעלזא,2","האדמו""ר מבעלזא,2, יהודה",31.732199989134543,34.992230001367744
2610,950.0,יהודה,"בן עזאי,12","בן עזאי,12",,
2610,951.0,יהודה,"הנורית,16","הנורית,16, יהודה",32.03828928663862,34.876737910248885
2610,990.0,יהודה,"בן עזאי,12","בן עזאי,12",,
3780,1.0,יהודה,"אלעזר המודעי,23","אלעזר המודעי,23, יהודה",31.659939139770696,35.143054453566165
3780,2.0,יהודה,"אלעזר המודעי,23","אלעזר המודעי,23, יהודה",31.659939139770696,35.143054453566165
3780,3.0,יהודה,"רבי נחמן מברסלב,2","רבי נחמן מברסלב,2",,
3780,4.0,יהודה,"רבי נחמן מברסלב,2","רבי נחמן מברסלב,2",,
3780,5.0,יהודה,"הרב אוירבך,13","הרב אוירבך,13, יהודה",31.691039983039275,35.11391000594659
3780,6.0,יהודה,"איגרות משה,14","איגרות משה,14, יהודה",31.809189991005326,35.223679996665425
3780,7.0,יהודה,"רבי נחמן מברסלב,2","רבי נחמן מברסלב,2",,
3780,8.0,יהודה,"הרבי מזוועהיל,10","הרבי מזוועהיל,10, יהודה",31.694802739712905,35.11284746406726
3780,9.0,יהודה,"הרב אוירבך,13","הרב אוירבך,13, יהודה",31.691039983039275,35.11391000594659
3780,10.0,יהודה,"איגרות משה,14","איגרות משה,14, יהודה",31.809189991005326,35.223679996665425
3780,11.0,יהודה,"אלעזר המודעי,23","אלעזר המודעי,23, יהודה",31.659939139770696,35.143054453566165
3780,12.0,יהודה,"הרבי מזוועהיל,10","הרבי מזוועהיל,10, יהודה",31.694802739712905,35.11284746406726
3780,13.0,יהודה,"אלעזר המודעי,23","אלעזר המודעי,23, יהודה",31.659939139770696,35.143054453566165
3780,15.0,יהודה,"קדושת לוי,59","קדושת לוי,59, יהודה",31.703602648801464,35.112003103269956
3780,16.0,יהודה,"הרב בנדר,5","הרב בנדר,5, יהודה",31.702079997259233,35.11823003884322
3780,17.0,יהודה,"הרב בנדר,5","הרב בנדר,5, יהודה",31.702079997259233,35.11823003884322
3780,18.0,יהודה,"פחד יצחק,30","פחד יצחק,30, יהודה",32.32875000000007,34.856250000000045
3780,19.0,יהודה,"קדושת לוי,59","קדושת לוי,59, יהודה",31.703602648801464,35.112003103269956
3780,20.1,יהודה,"קדושת לוי,64","קדושת לוי,64, יהודה",31.70437743999871,35.11317702821816
3780,20.2,יהודה,"קדושת לוי,64","קדושת לוי,64, יהודה",31.70437743999871,35.11317702821816
3780,21.0,יהודה,"החוזה מלובלין,13","החוזה מלובלין,13, יהודה",32.34257998519698,34.85777002519825
3780,22.0,יהודה,"כנסת מרדכי,8","כנסת מרדכי,8",,
3780,23.0,יהודה,"פחד יצחק,30","פחד יצחק,30, יהודה",32.32875000000007,34.856250000000045
3780,24.0,יהודה,"קדושת לוי,111","קדושת לוי,111, יהודה",31.699519996391388,35.10248999814618
3780,25.0,יהודה,"אלעזר המודעי,23","אלעזר המודעי,23, יהודה",31.659939139770696,35.143054453566165
3780,26.0,יהודה,"הרב אוירבך,13","הרב אוירבך,13, יהודה",31.691039983039275,35.11391000594659
3780,27.0,יהודה,"הרבי מזוועהיל,10","הרבי מזוועהיל,10, יהודה",31.694802739712905,35.11284746406726
